{"type": "FeatureCollection", "features": [{"type": "Feature", "properties": {"ref": "I 44"}, "geometry": {"type": "MultiLineString", "coordinates": [[[-90.9813177, 38.3592465], [-90.9810575, 38.3595288], [-90.9808101, 38.3597922], [-90.9805553, 38.3600567], [-90.9803025, 38.3603154], [-90.9800436, 38.3605746], [-90.9797902, 38.3608328], [-90.9795313, 38.3610941], [-90.9791806, 38.3614464], [-90.9788366, 38.3617918], [-90.9785939, 38.3620384], [-90.9783317, 38.3623029], [-90.97781, 38.3628302], [-90.9773862, 38.3632603], [-90.9770443, 38.3636131], [-90.9767988, 38.363875], [-90.9765534, 38.364151], [-90.9763194, 38.3644244], [-90.9760961, 38.364702], [-90.9758922, 38.3649628], [-90.975732, 38.3651762], [-90.9755328, 38.365458], [-90.9753343, 38.3657493], [-90.9750762, 38.3661478], [-90.9749012, 38.3664412], [-90.9747295, 38.366744], [-90.9745666, 38.3670463], [-90.974409, 38.3673565], [-90.9742132, 38.3677656], [-90.9739684, 38.3682818], [-90.973729, 38.3687955], [-90.9734467, 38.3694095], [-90.973202, 38.3699321], [-90.9729619, 38.370451], [-90.9726769, 38.3710624], [-90.972394, 38.3716643], [-90.972109, 38.3722826], [-90.9717248, 38.373109], [-90.9714351, 38.3737309], [-90.9711508, 38.3743444], [-90.9708591, 38.3749652], [-90.9705714, 38.3755861], [-90.9703314, 38.3761002], [-90.9700873, 38.3766264], [-90.9698036, 38.3772293], [-90.9696507, 38.3775505], [-90.9694932, 38.3778559], [-90.9693202, 38.3781587], [-90.9691364, 38.3784526], [-90.9689346, 38.3787443], [-90.9687321, 38.3790234], [-90.9685068, 38.3793068], [-90.9682728, 38.3795785], [-90.9680247, 38.3798466], [-90.9677692, 38.3801021], [-90.9674983, 38.380356], [-90.967222, 38.3805967], [-90.966929, 38.3808343], [-90.9666447, 38.381053], [-90.9663302, 38.3812801], [-90.9660117, 38.3814914], [-90.9656844, 38.3816927], [-90.9653525, 38.3818851], [-90.9650065, 38.3820717], [-90.9646618, 38.3822441], [-90.964289, 38.3824139], [-90.9639269, 38.3825705], [-90.9635474, 38.3827161], [-90.9631772, 38.3828491], [-90.9627903, 38.3829768], [-90.9624041, 38.3830914], [-90.9620118, 38.3831971], [-90.9614713, 38.3833374], [-90.9605339, 38.3835818], [-90.9597708, 38.3837805], [-90.9591056, 38.3839524], [-90.9579013, 38.3842635], [-90.9573803, 38.3843986], [-90.9563356, 38.3846709], [-90.9556845, 38.3848423], [-90.9545043, 38.3851455], [-90.9534495, 38.3854199], [-90.9525054, 38.3856654], [-90.9515901, 38.3859014], [-90.9507962, 38.3861074], [-90.950131, 38.3862861], [-90.9497273, 38.3863944], [-90.9493417, 38.3865042], [-90.9489508, 38.3866283], [-90.9485659, 38.3867623], [-90.9481803, 38.3869053], [-90.9478102, 38.3870514], [-90.9474501, 38.3872085], [-90.9470759, 38.3873804], [-90.9467346, 38.3875491], [-90.9463712, 38.3877389], [-90.9460272, 38.3879307], [-90.9456939, 38.3881273], [-90.9453768, 38.3883281], [-90.9450401, 38.388552], [-90.944733, 38.3887696], [-90.944434, 38.388994], [-90.9441342, 38.3892321], [-90.9438593, 38.3894639], [-90.9435763, 38.3897177], [-90.9433047, 38.3899747], [-90.9429648, 38.3903211], [-90.9427287, 38.3905823], [-90.942482, 38.3908651], [-90.9420951, 38.3913123], [-90.9416948, 38.3917827], [-90.9412394, 38.3923183], [-90.940927, 38.3926856], [-90.9406125, 38.3930435], [-90.940292, 38.3933967], [-90.9400365, 38.3936532], [-90.9397683, 38.393907], [-90.93949, 38.394153], [-90.939213, 38.3943863], [-90.9389146, 38.3946202], [-90.9386015, 38.3948477], [-90.9383018, 38.3950569], [-90.9379638, 38.3952734], [-90.9376413, 38.3954663], [-90.937302, 38.3956623], [-90.9369573, 38.3958426], [-90.9365986, 38.3960202], [-90.9362418, 38.3961847], [-90.9358744, 38.3963424], [-90.9355143, 38.3964848], [-90.9351294, 38.3966277], [-90.9347498, 38.3967528], [-90.9343509, 38.3968753], [-90.9339834, 38.3969809], [-90.933333, 38.3971643], [-90.932818, 38.3973094], [-90.9324163, 38.397426], [-90.9320281, 38.3975443], [-90.9316304, 38.3976814], [-90.9312657, 38.3978212], [-90.9309089, 38.3979857], [-90.930571, 38.3981654], [-90.9302236, 38.3983688], [-90.9299152, 38.3985811], [-90.9296161, 38.3988087], [-90.9293311, 38.3990588], [-90.9290736, 38.3993142], [-90.9288315, 38.3995891], [-90.9286123, 38.3998707], [-90.9284165, 38.4001613], [-90.9282455, 38.4004603], [-90.9280919, 38.4007783], [-90.9279739, 38.4010899], [-90.927878, 38.4014068], [-90.9278029, 38.4017336], [-90.9277439, 38.4020642], [-90.9276728, 38.4025014], [-90.9274804, 38.4036984], [-90.9273396, 38.404567], [-90.9271679, 38.4056511], [-90.9270948, 38.4060925], [-90.927009, 38.4066348], [-90.9269238, 38.4071791], [-90.9268541, 38.4076142], [-90.9267662, 38.4081596], [-90.9266797, 38.4087061], [-90.9265926, 38.409251], [-90.926486, 38.4099057], [-90.9264176, 38.4103391], [-90.9263418, 38.4107952], [-90.9262425, 38.4113191], [-90.9261406, 38.4117478], [-90.9260226, 38.4121776], [-90.9258925, 38.4126048], [-90.925745, 38.413023], [-90.9256223, 38.4133425], [-90.925452, 38.4137539], [-90.9252676, 38.4141642], [-90.9250617, 38.414573], [-90.9248478, 38.4149733], [-90.9246158, 38.4153731], [-90.924371, 38.4157693], [-90.9241102, 38.4161597], [-90.9238413, 38.4165353], [-90.923561, 38.4169068], [-90.9232539, 38.4172824], [-90.9229454, 38.4176402], [-90.9226182, 38.4180022], [-90.9223755, 38.4182543], [-90.9221173, 38.4185186], [-90.921603, 38.4190419], [-90.9210055, 38.4196524], [-90.9201553, 38.4205192], [-90.9195571, 38.4211302], [-90.9190408, 38.4216566], [-90.9185339, 38.4221735], [-90.9179378, 38.4227829], [-90.9174301, 38.4232988], [-90.917001, 38.4237385], [-90.9166731, 38.4240816], [-90.916431, 38.4243495], [-90.916197, 38.4246242], [-90.915975, 38.4249048], [-90.9157638, 38.425189], [-90.915568, 38.4254774], [-90.9153843, 38.4257694], [-90.9152073, 38.4260726], [-90.915047, 38.426373], [-90.9148981, 38.4266714], [-90.9147553, 38.4269929], [-90.9146252, 38.4273097], [-90.9145139, 38.4276254], [-90.9144133, 38.4279416], [-90.9143221, 38.4282673], [-90.9142484, 38.4285914], [-90.9141853, 38.4289192], [-90.9141357, 38.4292465], [-90.9140988, 38.4295716], [-90.9140747, 38.4299073], [-90.9140613, 38.4302314], [-90.9140566, 38.4313381], [-90.9140539, 38.4323199], [-90.9140519, 38.4329907], [-90.9140499, 38.4333147], [-90.9140385, 38.4336472], [-90.914005, 38.4339771], [-90.9139466, 38.4343075], [-90.9138648, 38.4346284], [-90.9137669, 38.4349409], [-90.9136449, 38.435255], [-90.9135067, 38.435567], [-90.9133445, 38.4358701], [-90.9131621, 38.4361648], [-90.9129549, 38.4364468], [-90.9128308, 38.4366128]], [[-92.411863, 37.768078], [-92.4131082, 37.7679776], [-92.416068, 37.767679], [-92.418841, 37.767378], [-92.419949, 37.7673549], [-92.421614, 37.767436], [-92.423466, 37.767699], [-92.427057, 37.768138], [-92.4286827, 37.7683641], [-92.4302331, 37.768558], [-92.431859, 37.768718], [-92.432729, 37.768767], [-92.433732, 37.76874], [-92.4341775, 37.768693], [-92.434623, 37.7686333], [-92.435456, 37.768465], [-92.436298, 37.768274], [-92.4371874, 37.7679736], [-92.4378205, 37.767713], [-92.438416, 37.767427], [-92.43984, 37.766667], [-92.441018, 37.766056], [-92.4465889, 37.7632484], [-92.4474635, 37.7627602]], [[-92.0611931, 37.8618654], [-92.059029, 37.861955], [-92.058436, 37.861977], [-92.057291, 37.862054], [-92.056707, 37.862089], [-92.056223, 37.862111], [-92.0556327, 37.8621237], [-92.054977, 37.8621665], [-92.0538081, 37.8622286], [-92.0532163, 37.8622572], [-92.0519927, 37.8623163], [-92.0514555, 37.8623442], [-92.0509319, 37.8623664], [-92.0501044, 37.8624145], [-92.0497573, 37.8624288], [-92.0492801, 37.8624566], [-92.048895, 37.862467], [-92.0484478, 37.8625007], [-92.0478856, 37.8625278], [-92.0472817, 37.8625682], [-92.046806, 37.8625885], [-92.046404, 37.8626067], [-92.0456801, 37.8626339], [-92.0453342, 37.8626562], [-92.0449922, 37.8626759], [-92.044091, 37.862729], [-92.043707, 37.862743], [-92.043096, 37.862796], [-92.0419, 37.86287], [-92.040696, 37.862911], [-92.040098, 37.862935], [-92.039528, 37.86297], [-92.038852, 37.863004], [-92.037479, 37.863087], [-92.036101, 37.863159], [-92.034389, 37.86326], [-92.032934, 37.863328], [-92.031756, 37.863398], [-92.030999, 37.863464], [-92.03046, 37.863532], [-92.030025, 37.863629], [-92.029604, 37.863734], [-92.028996, 37.863903], [-92.028515, 37.864054], [-92.028066, 37.864202], [-92.027617, 37.864379], [-92.02719, 37.864589], [-92.025983, 37.865212], [-92.022993, 37.86683], [-92.022612, 37.867038], [-92.021786, 37.867472], [-92.020755, 37.868041], [-92.02039, 37.868282], [-92.0198855, 37.8686711], [-92.0194896, 37.8689834], [-92.019214, 37.86921], [-92.018668, 37.869769], [-92.017944, 37.870766], [-92.017809, 37.870967], [-92.017714, 37.871107], [-92.017182, 37.872186], [-92.017162, 37.87224], [-92.016869, 37.873031], [-92.01651, 37.874245], [-92.016303, 37.875098], [-92.016133, 37.875796], [-92.015045, 37.8805], [-92.014909, 37.881087], [-92.014545, 37.882561], [-92.013963, 37.885077], [-92.013816, 37.885836], [-92.01378, 37.886444], [-92.013754, 37.888312], [-92.013707, 37.888713], [-92.013563, 37.889201], [-92.013378, 37.88971], [-92.013069, 37.890273], [-92.01209, 37.891644], [-92.011039, 37.892993], [-92.010767, 37.893352], [-92.010368, 37.893878], [-92.009754, 37.894644], [-92.008846, 37.895854], [-92.008203, 37.896728], [-92.007794, 37.897191], [-92.007458, 37.897677], [-92.00715, 37.898153], [-92.006747, 37.898562], [-92.006275, 37.89896], [-92.005858, 37.899348], [-92.005303, 37.899756], [-92.004031, 37.900474], [-92.003354, 37.900805], [-92.001974, 37.901391], [-91.9953, 37.904353], [-91.991928, 37.905836], [-91.99058, 37.906429], [-91.989985, 37.906691], [-91.988357, 37.907366], [-91.987935, 37.907515], [-91.987535, 37.907656], [-91.986234, 37.908049], [-91.985902, 37.908135], [-91.985379, 37.908271], [-91.984613, 37.908409]], [[-92.2851803, 37.7825298], [-92.284321, 37.782636], [-92.283348, 37.782742], [-92.280768, 37.783062], [-92.278201, 37.783359], [-92.276062, 37.783612], [-92.273762, 37.783881], [-92.272082, 37.784081], [-92.268693, 37.784492], [-92.268064, 37.784567], [-92.266855, 37.784711], [-92.265885, 37.784827], [-92.263705, 37.785091], [-92.262746, 37.785197], [-92.258953, 37.785665], [-92.257092, 37.785877], [-92.255865, 37.786037], [-92.253044, 37.786377], [-92.252211, 37.786539], [-92.251138, 37.786868], [-92.249752, 37.787418], [-92.248845, 37.787949], [-92.248207, 37.788358], [-92.246275, 37.789978], [-92.244457, 37.791464], [-92.242539, 37.79305], [-92.241823, 37.793627], [-92.241644, 37.793771], [-92.241275, 37.794048], [-92.24007, 37.794845], [-92.239276, 37.795298], [-92.237902, 37.796016], [-92.237506, 37.796215], [-92.236699, 37.796545], [-92.23585, 37.796908], [-92.235157, 37.797239], [-92.234492, 37.797525], [-92.234438, 37.797551], [-92.233841, 37.797834], [-92.233162, 37.79812], [-92.231519, 37.798881], [-92.230727, 37.799222], [-92.229694, 37.799696], [-92.229014, 37.800038], [-92.228107, 37.800547], [-92.226619, 37.801398], [-92.225613, 37.801983], [-92.224577, 37.802636], [-92.224105, 37.802948], [-92.22374, 37.803189], [-92.2235, 37.80333], [-92.222762, 37.803764], [-92.222124, 37.804163], [-92.221066, 37.804791], [-92.220635, 37.805047], [-92.219728, 37.805622], [-92.218863, 37.806186], [-92.218261, 37.806601], [-92.2181874, 37.8066512], [-92.215769, 37.808301], [-92.212463, 37.810503], [-92.209298, 37.812662], [-92.209197, 37.812729], [-92.20802, 37.813514], [-92.20565, 37.815119], [-92.204812, 37.815708], [-92.204465, 37.815833], [-92.204131, 37.816008], [-92.203553, 37.816263], [-92.203287, 37.816401], [-92.202932, 37.816564], [-92.202625, 37.816697], [-92.202313, 37.816823], [-92.201644, 37.817148], [-92.201479, 37.817228], [-92.201088, 37.817374], [-92.200792, 37.817413], [-92.200309, 37.817467], [-92.199261, 37.817572], [-92.199084, 37.81759], [-92.198638, 37.817628], [-92.198239, 37.817634], [-92.197788, 37.817627], [-92.196876, 37.817584], [-92.196373, 37.817568], [-92.195098, 37.817506], [-92.1947553, 37.8174893]], [[-91.0340388, 38.3198395], [-91.035193, 38.319405], [-91.0357006, 38.319292], [-91.039695, 38.318285], [-91.040964, 38.3180307], [-91.043704, 38.31737], [-91.0470365, 38.3165925], [-91.0501653, 38.3158599], [-91.051812, 38.315505], [-91.0526608, 38.3153009], [-91.0534613, 38.3150567], [-91.0539502, 38.3148852], [-91.0543426, 38.3147179], [-91.0552776, 38.3142297], [-91.0570543, 38.3130444], [-91.0591057, 38.3114752], [-91.0621441, 38.3091517], [-91.0661352, 38.3060266], [-91.0675085, 38.3049894], [-91.0681093, 38.3045314], [-91.0687273, 38.3041744], [-91.0695754, 38.3038094], [-91.0709852, 38.3032508], [-91.0722801, 38.302901], [-91.0729789, 38.3027671], [-91.0737044, 38.3026669], [-91.0744305, 38.3026046], [-91.0751458, 38.3025844], [-91.0756844, 38.3025985], [-91.076223, 38.3026253], [-91.0772997, 38.3027448], [-91.0804614, 38.3031266], [-91.0814224, 38.3031868], [-91.0821818, 38.3031927], [-91.0830842, 38.3031815], [-91.0839118, 38.3030423], [-91.0845409, 38.3028975], [-91.0854151, 38.3026162], [-91.0862786, 38.3023139], [-91.0880109, 38.3016903], [-91.0917088, 38.300389], [-91.0980013, 38.298157], [-91.0985886, 38.2979388], [-91.0991653, 38.2976743], [-91.0995958, 38.2974416], [-91.0999994, 38.2971879], [-91.1002957, 38.2969657], [-91.100592, 38.2967309], [-91.1008736, 38.2964877], [-91.1011337, 38.2962276], [-91.1013364, 38.2960117], [-91.101523, 38.2957621], [-91.1016814, 38.2955262], [-91.1018237, 38.2952902], [-91.1019857, 38.295012], [-91.1021262, 38.2946959], [-91.1022452, 38.2944009], [-91.1023428, 38.2940953], [-91.1025465, 38.2930725], [-91.1035711, 38.2868486], [-91.1043821, 38.282374], [-91.1048371, 38.280929], [-91.1051411, 38.280106], [-91.1058881, 38.2783242], [-91.1083661, 38.2722498], [-91.1101612, 38.2678671], [-91.1104683, 38.2672798], [-91.1107867, 38.2668082], [-91.1110804, 38.2664375], [-91.1113902, 38.266071], [-91.1117912, 38.2656649], [-91.1122245, 38.2652714], [-91.1137099, 38.2641962], [-91.1152274, 38.2630979], [-91.1175159, 38.2614435], [-91.1190694, 38.2603052], [-91.1221233, 38.2580725], [-91.1232345, 38.2572982], [-91.1242697, 38.2566474], [-91.1253156, 38.2560599], [-91.1287143, 38.2543287], [-91.1307462, 38.2532884], [-91.1312632, 38.2530021], [-91.1317588, 38.2526904], [-91.132423, 38.2522193], [-91.1330496, 38.2517187], [-91.1334683, 38.2513598], [-91.1338763, 38.2509629], [-91.1342547, 38.2505777], [-91.1346171, 38.2501545], [-91.1351978, 38.2494545]], [[-91.1350138, 38.2493599], [-91.1344831, 38.2500145], [-91.134125, 38.25044], [-91.13374, 38.2508402], [-91.1333162, 38.2512447], [-91.1328709, 38.2516407], [-91.1322991, 38.2520956], [-91.1316147, 38.2525759], [-91.1309564, 38.2529873], [-91.1302364, 38.2533713], [-91.1286462, 38.2541605], [-91.125048, 38.2559972], [-91.1241085, 38.2565329], [-91.1230777, 38.257174], [-91.1219343, 38.2579735], [-91.1190016, 38.2601239], [-91.1174178, 38.2612823], [-91.1150266, 38.2630071], [-91.1135274, 38.2640801], [-91.112055, 38.2651742], [-91.1116164, 38.265562], [-91.1112047, 38.2659666], [-91.1108792, 38.2663655], [-91.1105645, 38.2667644], [-91.1102164, 38.2672736], [-91.1099185, 38.2678403], [-91.108101, 38.2722186], [-91.1056063, 38.2783468], [-91.1049341, 38.2800266], [-91.1046282, 38.2808953], [-91.104158, 38.282376], [-91.1033459, 38.2868435], [-91.1023077, 38.2930472], [-91.1021117, 38.2940434], [-91.1020215, 38.294338], [-91.1019152, 38.2946073], [-91.1017915, 38.2948819], [-91.1016355, 38.2951901], [-91.101491, 38.2954349], [-91.1013305, 38.2956754], [-91.1011337, 38.295917], [-91.1009261, 38.296146], [-91.1007173, 38.296365], [-91.1004923, 38.2965629], [-91.0997635, 38.2971207], [-91.0994606, 38.2973041], [-91.0990719, 38.2975127], [-91.0985131, 38.2977779], [-91.0978791, 38.2980094], [-91.0915957, 38.3002461], [-91.0878857, 38.3015429], [-91.0862058, 38.3021565], [-91.0853485, 38.3024517], [-91.0844858, 38.3027175], [-91.0838286, 38.3028777], [-91.0830396, 38.3030051], [-91.0822606, 38.3029995], [-91.0813642, 38.3030433], [-91.0762326, 38.3024523], [-91.0756514, 38.3024171], [-91.0750702, 38.3024156], [-91.0743554, 38.3024286], [-91.0736406, 38.3024923], [-91.0728788, 38.3026116], [-91.0721171, 38.3027688], [-91.0709616, 38.3030795], [-91.0695094, 38.3036415], [-91.0681265, 38.3042889], [-91.066736, 38.3052992], [-91.062316, 38.308692], [-91.060472, 38.310232], [-91.058925, 38.311354], [-91.057996, 38.311972], [-91.05573, 38.312864], [-91.055297, 38.312985], [-91.0509183, 38.3142837], [-91.0499759, 38.3145594], [-91.0458802, 38.3158152], [-91.0448525, 38.3161346], [-91.041206, 38.317164], [-91.0356501, 38.3189436], [-91.0342404, 38.3194459], [-91.0338971, 38.3195801]], [[-91.0187779, 38.3336859], [-91.018293, 38.3349009], [-91.0179238, 38.3356609], [-91.0176862, 38.3360408], [-91.0174196, 38.3363412], [-91.0170409, 38.3367587], [-91.0166308, 38.3371323], [-91.0161675, 38.337464], [-91.0156259, 38.3378468], [-91.0151566, 38.3381085], [-91.0146031, 38.3383773], [-91.0138049, 38.3386979], [-91.0131471, 38.338901], [-91.0126302, 38.3390131], [-91.0120927, 38.3391156], [-91.011497, 38.3391808], [-91.0109789, 38.3392142], [-91.009425, 38.3392963], [-91.0041815, 38.3395419], [-91.0031089, 38.3395816], [-91.0025449, 38.3396281], [-91.0020149, 38.3396887], [-91.0014014, 38.3397802], [-91.0009841, 38.3398477], [-91.0005139, 38.3399338], [-90.9999142, 38.3400802], [-90.9993651, 38.3402277], [-90.9988275, 38.3404143], [-90.9982375, 38.3406446], [-90.9977721, 38.3408241], [-90.997417, 38.3409779], [-90.9970214, 38.3411694], [-90.9962271, 38.3415588], [-90.9958265, 38.3417921], [-90.9952903, 38.3421485], [-90.9944193, 38.3427912], [-90.993776, 38.343359], [-90.9934205, 38.3437188], [-90.9931067, 38.3440625], [-90.9919483, 38.3455593], [-90.9914502, 38.3462058], [-90.99123, 38.3464897], [-90.9901792, 38.3478441], [-90.9883294, 38.3502181], [-90.9857544, 38.353598], [-90.9831268, 38.3570739], [-90.9813177, 38.3592465]], [[-91.9705067, 37.9174572], [-91.969973, 37.9184055], [-91.9688251, 37.9201283]], [[-91.9707846, 37.9175182], [-91.9713764, 37.9165223], [-91.97225, 37.915337], [-91.973178, 37.914085], [-91.973753, 37.913329], [-91.974031, 37.912963], [-91.97452, 37.912348], [-91.975035, 37.91182], [-91.975326, 37.911562], [-91.975923, 37.911089], [-91.976823, 37.910521], [-91.977501, 37.910179], [-91.9783, 37.90983], [-91.978746, 37.909672], [-91.979601, 37.909436], [-91.980166, 37.909292], [-91.980712, 37.909203], [-91.981856, 37.909051]], [[-91.9690422, 37.9202376], [-91.9702568, 37.9184378], [-91.9707846, 37.9175182]], [[-91.9688251, 37.9201283], [-91.9678868, 37.9213703], [-91.9675466, 37.9219298], [-91.9647074, 37.9266464], [-91.9617449, 37.9318061], [-91.9610027, 37.9328529], [-91.9603423, 37.9336169], [-91.9593988, 37.9344453], [-91.9535962, 37.9385451]], [[-92.4534541, 37.7594847], [-92.4516667, 37.7603986]], [[-92.4473843, 37.7625899], [-92.4460009, 37.7633243], [-92.442046, 37.76531], [-92.4400461, 37.7663698], [-92.438855, 37.766962], [-92.4378395, 37.7674881], [-92.437012, 37.767826], [-92.43614, 37.768121], [-92.4352244, 37.7683568], [-92.4346659, 37.7684489], [-92.434094, 37.7685219], [-92.4334463, 37.7685717], [-92.4326356, 37.7685966], [-92.4322302, 37.7685892], [-92.431841, 37.7685585], [-92.4307951, 37.7684472], [-92.4294679, 37.768286], [-92.42808, 37.768098], [-92.426718, 37.767927], [-92.424355, 37.767645], [-92.421558, 37.767284], [-92.420745, 37.76719], [-92.419856, 37.767157], [-92.418928, 37.7672001], [-92.418266, 37.7672532], [-92.4136704, 37.7677278], [-92.4129536, 37.767785], [-92.411867, 37.767881]], [[-92.4518047, 37.7605382], [-92.45354, 37.759649]], [[-92.1950513, 37.8176975], [-92.195921, 37.817746], [-92.196405, 37.817762], [-92.196734, 37.817767], [-92.197416, 37.817803], [-92.197943, 37.817825], [-92.198439, 37.817838], [-92.198871, 37.817822], [-92.199189, 37.817796], [-92.199403, 37.81777], [-92.199546, 37.817752], [-92.199888, 37.8177], [-92.200217, 37.817662], [-92.200578, 37.81763], [-92.200869, 37.817591], [-92.201127, 37.817548], [-92.201346, 37.817474], [-92.201612, 37.817369], [-92.202045, 37.81718], [-92.202234, 37.817097], [-92.20317, 37.816697], [-92.203477, 37.816554], [-92.204083, 37.816244], [-92.204391, 37.816073], [-92.204705, 37.815924], [-92.204972, 37.815809], [-92.205154, 37.81571], [-92.206002, 37.815121], [-92.208373, 37.813516], [-92.209307, 37.812893], [-92.20965, 37.812664], [-92.212815, 37.810506], [-92.216121, 37.808303], [-92.217142, 37.807628], [-92.218037, 37.807019], [-92.218351, 37.806813], [-92.220003, 37.805726], [-92.220122, 37.805647], [-92.221072, 37.805061], [-92.221206, 37.804981], [-92.221894, 37.804568], [-92.222547, 37.804176], [-92.223213, 37.803767], [-92.223636, 37.803524], [-92.224191, 37.803204], [-92.2244771, 37.8030187], [-92.224716, 37.802864], [-92.225014, 37.802672], [-92.226063, 37.802031], [-92.227835, 37.801003], [-92.228558, 37.80055], [-92.229436, 37.800063], [-92.23013, 37.799699], [-92.23115, 37.799225], [-92.2312, 37.799201], [-92.231872, 37.798883], [-92.233541, 37.798156], [-92.234206, 37.79787], [-92.234588, 37.797696], [-92.236216, 37.796955], [-92.237094, 37.796581], [-92.237651, 37.796333], [-92.237886, 37.796229], [-92.238297, 37.796019], [-92.238877, 37.795732], [-92.239685, 37.795301], [-92.240422, 37.794847], [-92.241627, 37.79405], [-92.241996, 37.793773], [-92.24223, 37.793584], [-92.242248, 37.79357], [-92.242891, 37.793052], [-92.244809, 37.791466], [-92.246627, 37.78998], [-92.247792, 37.789004], [-92.248644, 37.788383], [-92.249352, 37.787963], [-92.250258, 37.787477], [-92.251502, 37.787015], [-92.25259, 37.786698], [-92.253493, 37.786536], [-92.25441, 37.786397], [-92.255306, 37.786288], [-92.256258, 37.786173], [-92.257555, 37.786025], [-92.25936, 37.785802], [-92.263111, 37.785356], [-92.264098, 37.78525], [-92.265861, 37.785049], [-92.266318, 37.784989], [-92.266879, 37.784916], [-92.267737, 37.784803], [-92.268131, 37.784747], [-92.268569, 37.784686], [-92.268737, 37.784667], [-92.269527, 37.78458], [-92.270966, 37.784399], [-92.272531, 37.78423], [-92.273621, 37.784098], [-92.274477, 37.783995], [-92.276205, 37.783766], [-92.276494, 37.783728], [-92.278651, 37.783473], [-92.283158, 37.782925], [-92.283727, 37.782856], [-92.2847, 37.78275], [-92.2852204, 37.7826865]], [[-92.1923194, 37.817598], [-92.192819, 37.817609], [-92.193389, 37.817621], [-92.193959, 37.817647], [-92.1950513, 37.8176975]], [[-92.1921888, 37.81739], [-92.190689, 37.817342], [-92.190568, 37.817339], [-92.18992, 37.817318], [-92.189329, 37.817306], [-92.188754, 37.817302], [-92.18822, 37.817323], [-92.187764, 37.817399], [-92.187721, 37.817406], [-92.187683, 37.817411], [-92.187207, 37.817476], [-92.186849, 37.817535], [-92.186454, 37.81759], [-92.18608, 37.817666], [-92.18569, 37.817737], [-92.185238, 37.817857], [-92.184894, 37.817958], [-92.184452, 37.818119], [-92.18402, 37.818264], [-92.18364, 37.818418], [-92.183296, 37.818543], [-92.182926, 37.818693], [-92.182645, 37.818823], [-92.182019, 37.819155], [-92.18168, 37.819359], [-92.181408, 37.819546], [-92.181084, 37.819778], [-92.180681, 37.820059], [-92.180404, 37.820279], [-92.180132, 37.820504], [-92.179891, 37.820753], [-92.179619, 37.820986], [-92.179346, 37.821251], [-92.1786, 37.821908], [-92.178493, 37.822002], [-92.178194, 37.822259], [-92.178029, 37.822374], [-92.177698, 37.822605], [-92.177416, 37.82278], [-92.176904, 37.823077], [-92.176367, 37.823357], [-92.176044, 37.823498], [-92.175435, 37.823737], [-92.175143, 37.823846], [-92.174893, 37.823931], [-92.174196, 37.82414], [-92.173562, 37.824271], [-92.173193, 37.82433], [-92.172311, 37.824426], [-92.171724, 37.824459], [-92.1705671, 37.8245219], [-92.1700909, 37.8245369], [-92.16939, 37.824566], [-92.168916, 37.824586], [-92.168881, 37.824588], [-92.168144, 37.824611], [-92.166329, 37.824678], [-92.166183, 37.824684], [-92.16567, 37.824713], [-92.163885, 37.824795], [-92.163842, 37.8247964], [-92.163514, 37.824807], [-92.162215, 37.824853], [-92.161701, 37.824857], [-92.161198, 37.824879], [-92.160887, 37.824897], [-92.160431, 37.82489], [-92.159726, 37.824827], [-92.159358, 37.8248], [-92.159259, 37.82479], [-92.159016, 37.824764], [-92.158323, 37.824648], [-92.157976, 37.824576], [-92.155913, 37.824051], [-92.155345, 37.823895], [-92.154047, 37.823577], [-92.153676, 37.823493], [-92.152159, 37.823148], [-92.151796, 37.82308], [-92.151279, 37.822994], [-92.1508094, 37.8229414], [-92.1504312, 37.822924], [-92.150053, 37.8229207], [-92.149294, 37.8229518], [-92.148412, 37.8230053], [-92.1470418, 37.8230953], [-92.146019, 37.823165], [-92.144665, 37.823258], [-92.143916, 37.823301], [-92.14314, 37.823344], [-92.1418172, 37.8234349], [-92.141145, 37.8234776], [-92.1403167, 37.8235278], [-92.1397918, 37.823561], [-92.1393214, 37.8235918], [-92.1381082, 37.8236705], [-92.135485, 37.823812], [-92.134504, 37.823891], [-92.133949, 37.823929], [-92.133036, 37.823984], [-92.132024, 37.824038], [-92.130436, 37.824137], [-92.129345, 37.824226], [-92.129003, 37.824254], [-92.128225, 37.824298], [-92.12753, 37.824346], [-92.126829, 37.824382], [-92.125615, 37.824472], [-92.124997, 37.824508], [-92.12357, 37.824617], [-92.122849, 37.824657], [-92.122205, 37.82471], [-92.121696, 37.824743], [-92.121058, 37.824779], [-92.12043, 37.824807], [-92.119673, 37.824851], [-92.118946, 37.824903], [-92.118323, 37.824956], [-92.117239, 37.825018], [-92.11659, 37.825062], [-92.116066, 37.825087], [-92.115199, 37.825142], [-92.114789, 37.825164], [-92.114379, 37.825194], [-92.113881, 37.825264], [-92.112878, 37.825462], [-92.112383, 37.825586], [-92.112003, 37.825707], [-92.111237, 37.82603], [-92.110841, 37.826216], [-92.110538, 37.82637], [-92.110256, 37.826537], [-92.109933, 37.826719], [-92.109593, 37.826935], [-92.109253, 37.827171], [-92.108923, 37.827415], [-92.108829, 37.82748], [-92.108516, 37.827696], [-92.108144, 37.82796], [-92.107746, 37.82827], [-92.107281, 37.828587], [-92.106915, 37.828852], [-92.106115, 37.829417], [-92.104922, 37.830239], [-92.104603, 37.830471], [-92.104232, 37.830728], [-92.103076, 37.831558], [-92.101549, 37.83262], [-92.101156, 37.832901], [-92.100737, 37.833214], [-92.100319, 37.833499], [-92.099922, 37.83378], [-92.099545, 37.834065], [-92.099159, 37.834365], [-92.098873, 37.83459], [-92.098498, 37.834888], [-92.098141, 37.835181], [-92.097779, 37.835532], [-92.096997, 37.836328], [-92.096651, 37.836626], [-92.096457, 37.836808], [-92.096352, 37.836907], [-92.096031, 37.837225], [-92.095848, 37.837399], [-92.095789, 37.837456], [-92.095696, 37.837544], [-92.095401, 37.837858], [-92.094945, 37.838287], [-92.094661, 37.838601], [-92.094047, 37.83916], [-92.093298, 37.839726], [-92.092885, 37.840039], [-92.092493, 37.8403], [-92.092111, 37.840535], [-92.09173, 37.84075], [-92.090806, 37.841237], [-92.089856, 37.841702], [-92.089371, 37.84195], [-92.088979, 37.842145], [-92.088038, 37.842608], [-92.087534, 37.842857], [-92.087107, 37.843047], [-92.086663, 37.843306], [-92.086161, 37.84357], [-92.085955, 37.8437], [-92.085884, 37.843745], [-92.08556, 37.843964], [-92.085262, 37.844192], [-92.084979, 37.844416], [-92.084685, 37.844657], [-92.084407, 37.84491], [-92.084177, 37.845105], [-92.083772, 37.845518], [-92.083509, 37.845812], [-92.08322, 37.846114], [-92.082652, 37.846751], [-92.082321, 37.847094], [-92.081995, 37.847449], [-92.081664, 37.847796], [-92.081301, 37.848168], [-92.080581, 37.848944], [-92.080234, 37.849286], [-92.079966, 37.849568], [-92.079677, 37.849883], [-92.079314, 37.850262], [-92.078972, 37.850654], [-92.078626, 37.850989], [-92.07831, 37.85132], [-92.078042, 37.85161], [-92.077801, 37.8518932], [-92.077075, 37.852614]], [[-92.1947553, 37.8174893], [-92.193906, 37.817448], [-92.193264, 37.817419], [-92.192602, 37.817405], [-92.1921888, 37.81739]], [[-90.9132285, 38.4365419], [-90.9134162, 38.4362336], [-90.9135476, 38.4360023], [-90.9137005, 38.435701], [-90.9137904, 38.4354982], [-90.9138735, 38.4352855], [-90.9139433, 38.4350791], [-90.9140063, 38.4348664], [-90.9140676, 38.4346264], [-90.9141069, 38.4344152], [-90.9141592, 38.4340864], [-90.9141847, 38.4337591], [-90.9141921, 38.4334403], [-90.91419, 38.4328977], [-90.91419, 38.4323509], [-90.9141914, 38.4317043], [-90.9141941, 38.4311553], [-90.9141947, 38.4306117], [-90.9141988, 38.4301809], [-90.9142115, 38.4298568], [-90.914237, 38.4295228], [-90.9142765, 38.4291971], [-90.9143262, 38.4288793], [-90.9143912, 38.4285557], [-90.914467, 38.4282326], [-90.9145622, 38.4279027], [-90.9146641, 38.427597], [-90.9147754, 38.4272897], [-90.9149028, 38.4269761], [-90.9150691, 38.4266136], [-90.9151992, 38.4263552], [-90.9153595, 38.4260605], [-90.9155385, 38.4257595], [-90.9157269, 38.4254653], [-90.9159288, 38.4251785], [-90.916142, 38.4248958], [-90.9163633, 38.4246169], [-90.9165973, 38.4243463], [-90.9168421, 38.4240779], [-90.9170955, 38.4238121], [-90.9176897, 38.4232095], [-90.9182878, 38.4226017], [-90.9187987, 38.4220795], [-90.9193969, 38.4214659], [-90.9199011, 38.4209526], [-90.9204047, 38.4204362], [-90.9209163, 38.4199171], [-90.9215051, 38.4193182], [-90.9221012, 38.4187098], [-90.9225304, 38.4182685], [-90.9227771, 38.4180085], [-90.923107, 38.4176507], [-90.9234148, 38.4172892], [-90.9237146, 38.4169131], [-90.9239928, 38.4165453], [-90.9242108, 38.4162427], [-90.9244005, 38.4159621], [-90.924587, 38.4156731], [-90.9247693, 38.4153773], [-90.924941, 38.4150789], [-90.9251073, 38.4147747], [-90.9252669, 38.4144658], [-90.9254151, 38.4141547], [-90.9255566, 38.4138474], [-90.92569, 38.4135321], [-90.9258141, 38.4132185], [-90.9259314, 38.4129048], [-90.92604, 38.412588], [-90.9261386, 38.4122664], [-90.9262278, 38.411948], [-90.9263847, 38.4112975], [-90.9264511, 38.4109507], [-90.9265436, 38.4104285], [-90.9266315, 38.4098894], [-90.926718, 38.4093455], [-90.9268058, 38.4088022], [-90.9268923, 38.4082595], [-90.9269956, 38.4076095], [-90.9271002, 38.4069584], [-90.9271719, 38.4065113], [-90.9272578, 38.4059669], [-90.9273436, 38.4054267], [-90.9274281, 38.4048981], [-90.9274985, 38.4044683], [-90.9275702, 38.4040279], [-90.9276574, 38.403484], [-90.9277439, 38.4029407], [-90.9278123, 38.4025135], [-90.9278827, 38.4020747], [-90.9279411, 38.4017594], [-90.9280215, 38.4014273], [-90.9281194, 38.4011141], [-90.9282529, 38.4007982], [-90.9284011, 38.4004998], [-90.9285747, 38.4002034], [-90.9287732, 38.399918], [-90.9289958, 38.3996411], [-90.9292372, 38.3993783], [-90.9295034, 38.3991224], [-90.9297851, 38.3988843], [-90.9300868, 38.3986605], [-90.9304087, 38.3984518], [-90.930744, 38.3982616], [-90.9311, 38.3980871], [-90.9314628, 38.3979284], [-90.931843, 38.3977907], [-90.9322507, 38.3976588], [-90.932759, 38.3975143], [-90.9334335, 38.397322], [-90.9339324, 38.3971843], [-90.9344595, 38.3970335], [-90.9349738, 38.3968716], [-90.9354848, 38.3966924], [-90.9359917, 38.3964948], [-90.9364886, 38.3962798], [-90.936964, 38.3960539], [-90.9374287, 38.3958111], [-90.9377734, 38.3956135], [-90.9381026, 38.3954122], [-90.9384265, 38.3952035], [-90.938739, 38.3949886], [-90.9390467, 38.3947642], [-90.9393492, 38.3945282], [-90.9396382, 38.3942886], [-90.9399084, 38.3940494], [-90.9401833, 38.3937903], [-90.9404415, 38.3935307], [-90.9406896, 38.3932685], [-90.9409276, 38.3930015], [-90.9412394, 38.3926362], [-90.9415519, 38.3922704], [-90.94202, 38.3917223], [-90.9424029, 38.391274], [-90.9426362, 38.3910017], [-90.9428729, 38.3907274], [-90.9431136, 38.3904646], [-90.9433584, 38.3902044], [-90.9436239, 38.3899463], [-90.9438948, 38.3896962], [-90.9441718, 38.3894565], [-90.9444601, 38.3892205], [-90.9447572, 38.3889898], [-90.9450589, 38.3887685], [-90.9453707, 38.3885572], [-90.9456892, 38.3883522], [-90.9460232, 38.3881467], [-90.9463578, 38.387957], [-90.9467004, 38.387772], [-90.9470458, 38.3875959], [-90.9474045, 38.3874272], [-90.9477666, 38.3872679], [-90.9481327, 38.3871176], [-90.9485123, 38.3869736], [-90.9488918, 38.386838], [-90.9492713, 38.3867145], [-90.9496623, 38.3865946], [-90.9500451, 38.3864869], [-90.9504455, 38.3863823], [-90.9515043, 38.38611], [-90.9526972, 38.385801], [-90.9538861, 38.3854903], [-90.9550796, 38.3851823], [-90.9562705, 38.3848738], [-90.9579919, 38.3844254], [-90.9585223, 38.3842872], [-90.9591874, 38.3841137], [-90.9598567, 38.3839392], [-90.9606244, 38.3837384], [-90.9615773, 38.3834935], [-90.9619662, 38.3833926], [-90.9623618, 38.3832864], [-90.9627555, 38.3831734], [-90.9631511, 38.3830504], [-90.9635313, 38.3829169], [-90.9638987, 38.3827755], [-90.9641777, 38.3826635], [-90.9645411, 38.3825043], [-90.9649073, 38.3823298], [-90.9652486, 38.3821563], [-90.9655932, 38.3819665], [-90.9659305, 38.3817652], [-90.9662329, 38.3815718], [-90.9665675, 38.3813452], [-90.9668659, 38.3811281], [-90.9671637, 38.3808969], [-90.9674493, 38.3806624], [-90.967739, 38.3804028], [-90.9680059, 38.3801457], [-90.9682607, 38.3798876], [-90.9685054, 38.3796201], [-90.9687408, 38.3793451], [-90.9689554, 38.3790702], [-90.9691666, 38.3787795], [-90.9693577, 38.3784925], [-90.9695435, 38.3781939], [-90.9697185, 38.3778901], [-90.9698767, 38.3775842], [-90.9700216, 38.3772872], [-90.9701664, 38.376977], [-90.9703086, 38.3766658], [-90.9705513, 38.376148], [-90.9707893, 38.3756381], [-90.9709811, 38.3752249], [-90.9712165, 38.3747145], [-90.9714572, 38.3741951], [-90.9716959, 38.3736831], [-90.971934, 38.37317], [-90.9721244, 38.372761], [-90.9723182, 38.3723467], [-90.9725549, 38.3718368], [-90.9728453, 38.3712143], [-90.973082, 38.3707086], [-90.9733254, 38.3701855], [-90.973611, 38.3695725], [-90.9738974, 38.3689537], [-90.9741817, 38.3683439], [-90.9744693, 38.3677272], [-90.9746115, 38.3674228], [-90.9747664, 38.3671173], [-90.9749307, 38.3668124], [-90.9751003, 38.3665169], [-90.9752794, 38.3662204], [-90.9754678, 38.3659254], [-90.9756582, 38.3656373], [-90.9757964, 38.3654444], [-90.9760036, 38.3651605], [-90.9762155, 38.3648807], [-90.9764387, 38.3646037], [-90.9766667, 38.3643303], [-90.9768873, 38.3640784], [-90.9771428, 38.3637982], [-90.9773909, 38.3635416], [-90.9776504, 38.3632787], [-90.9779066, 38.3630227], [-90.9783324, 38.3625947], [-90.9789245, 38.3619958], [-90.9792645, 38.3616535], [-90.9796178, 38.3612992], [-90.9800436, 38.3608659], [-90.9804714, 38.3604321], [-90.9808899, 38.360002], [-90.9811447, 38.3597349], [-90.9813874, 38.3594741], [-90.9816382, 38.359197]], [[-90.9816382, 38.359197], [-90.9833346, 38.3571314], [-90.9859486, 38.3536553], [-90.988539, 38.3502901], [-90.9903341, 38.3479129], [-90.9914071, 38.3465304], [-90.9916569, 38.3462086], [-90.9921489, 38.3455879], [-90.9926413, 38.3449502], [-90.9929777, 38.3445245], [-90.9934168, 38.3440354], [-90.993744, 38.3437057], [-90.9940111, 38.3434359], [-90.9945457, 38.3429408], [-90.9949907, 38.3425887], [-90.9954126, 38.342275], [-90.995948, 38.3419292], [-90.9963216, 38.3417017], [-90.9966622, 38.3415282], [-90.9970807, 38.3413439], [-90.9975989, 38.3411018], [-90.9981415, 38.3408611], [-90.998679, 38.3406459], [-90.999077, 38.3405079], [-90.99968, 38.3403278], [-91.000236, 38.3401816], [-91.0007709, 38.3400615], [-91.001296, 38.3399727], [-91.0018121, 38.3398902], [-91.0022628, 38.3398297], [-91.0026629, 38.3397981], [-91.0050184, 38.3396681], [-91.006985, 38.3395755], [-91.0086949, 38.3394928], [-91.0109493, 38.3393868], [-91.011684, 38.3393407], [-91.0122199, 38.3392742], [-91.0127448, 38.339172], [-91.0133785, 38.3390053], [-91.0139582, 38.3388362], [-91.0143494, 38.3386923], [-91.0147733, 38.3385141], [-91.0153361, 38.3382459], [-91.0158105, 38.3379646], [-91.0162273, 38.3376884], [-91.0165205, 38.3374736], [-91.0169483, 38.3371388], [-91.0172962, 38.3367809], [-91.0176741, 38.3363619], [-91.0180255, 38.3359089], [-91.018316, 38.3354429], [-91.0185686, 38.3349445], [-91.0190646, 38.3336907]], [[-91.2869492, 38.135617], [-91.2896066, 38.1347339], [-91.2977636, 38.1320709], [-91.3008182, 38.1310635], [-91.3014759, 38.1307975], [-91.302049, 38.1305443], [-91.3025345, 38.1302865], [-91.3027901, 38.1301362], [-91.3030243, 38.1299775], [-91.3034592, 38.1296806], [-91.3038241, 38.1294019], [-91.3041569, 38.1291105], [-91.3044547, 38.1288317], [-91.3046916, 38.1285882], [-91.3049123, 38.1283447], [-91.3069131, 38.1260844], [-91.3077372, 38.1251573], [-91.3086555, 38.1241166], [-91.3096396, 38.1230115], [-91.3100501, 38.1226167], [-91.3104981, 38.1222345], [-91.3108023, 38.1219946], [-91.3111333, 38.1217759], [-91.3115042, 38.1215132], [-91.3119234, 38.1212757], [-91.3138098, 38.1203709], [-91.3152035, 38.1197267], [-91.3196366, 38.1177834], [-91.3231273, 38.1161939], [-91.3266752, 38.1146225], [-91.3274239, 38.1142243], [-91.3306177, 38.1123387], [-91.3331356, 38.1108619], [-91.3336693, 38.1105733], [-91.3342353, 38.1103101], [-91.3348779, 38.1100209], [-91.3354568, 38.1097839], [-91.3364752, 38.1093985], [-91.3384225, 38.1087063], [-91.3410207, 38.1077894], [-91.3422962, 38.1073309], [-91.3439182, 38.1067548], [-91.3456031, 38.1060485], [-91.3471385, 38.1052617], [-91.3493273, 38.1040597], [-91.3609565, 38.0977647], [-91.3652794, 38.0954259], [-91.3725268, 38.0914863], [-91.3771602, 38.0889719], [-91.3836007, 38.0854458], [-91.3868446, 38.0837229], [-91.3909467, 38.0814733], [-91.3992927, 38.0769365], [-91.402561, 38.075171], [-91.409211, 38.0715787], [-91.412717, 38.0696846], [-91.4204094, 38.0654943], [-91.4215511, 38.064893], [-91.4227085, 38.0643723], [-91.4320465, 38.0607148], [-91.4382449, 38.0582568], [-91.4448587, 38.0556684], [-91.450193, 38.0535683], [-91.4602613, 38.0495925], [-91.4668849, 38.0470116], [-91.4687647, 38.0464536], [-91.4706838, 38.0460815], [-91.4754276, 38.04557], [-91.4814701, 38.0449702], [-91.4883107, 38.0442911], [-91.4919719, 38.0439191], [-91.4925013, 38.0438547], [-91.4934383, 38.0437408], [-91.4963318, 38.0430975], [-91.50018, 38.0422061], [-91.5048405, 38.0411807], [-91.5074089, 38.0405591], [-91.5100964, 38.0399365], [-91.5106676, 38.0397892], [-91.5111958, 38.0396293], [-91.511751, 38.03945], [-91.5123061, 38.0392539], [-91.5134111, 38.0388321], [-91.5160188, 38.0377724], [-91.5204632, 38.0359619], [-91.5250013, 38.0341027], [-91.5259776, 38.0337027], [-91.5272138, 38.0332159], [-91.52845, 38.0327163], [-91.5303344, 38.0319537], [-91.531331, 38.0315436], [-91.5316104, 38.0314293], [-91.5328108, 38.0309486], [-91.5340111, 38.0304299], [-91.534855, 38.030099], [-91.536476, 38.0294553], [-91.5396077, 38.0281907], [-91.541232, 38.027505], [-91.541774, 38.027285], [-91.542177, 38.027118], [-91.5426348, 38.0269423], [-91.544225, 38.02628], [-91.544434, 38.026197], [-91.545107, 38.02593], [-91.546889, 38.025194], [-91.5483652, 38.0246183], [-91.5497074, 38.0240807], [-91.5501525, 38.0239179], [-91.5505976, 38.0237761], [-91.5512396, 38.0236048], [-91.5518703, 38.0234747], [-91.552278, 38.023407], [-91.552675, 38.0233605], [-91.5533925, 38.0233099], [-91.55411, 38.0232952], [-91.5547687, 38.0232993], [-91.558704, 38.023554], [-91.559805, 38.023609], [-91.559882, 38.023613], [-91.560793, 38.02367], [-91.5614739, 38.0236965], [-91.5620796, 38.0237061], [-91.5625148, 38.023701], [-91.56295, 38.0236791], [-91.5633894, 38.0236384], [-91.563759, 38.0235976], [-91.564299, 38.0235323], [-91.5647562, 38.0234502], [-91.565149, 38.023368], [-91.565531, 38.023275], [-91.566133, 38.023079], [-91.5665518, 38.0229367], [-91.566917, 38.0227943], [-91.5680947, 38.0223159], [-91.5688056, 38.022015], [-91.5721295, 38.0206206], [-91.5751901, 38.0193282], [-91.578458, 38.0179563], [-91.579454, 38.017545], [-91.5803701, 38.0171569], [-91.5832625, 38.0159685], [-91.5845609, 38.0154751], [-91.585512, 38.015157], [-91.58641, 38.014905], [-91.58727, 38.014675], [-91.588432, 38.014379], [-91.588512, 38.014359], [-91.589005, 38.014215], [-91.589381, 38.014106], [-91.592608, 38.013277], [-91.595783, 38.012438], [-91.597898, 38.011879], [-91.599569, 38.011448], [-91.601413, 38.010952], [-91.602752, 38.010598], [-91.603942, 38.010283], [-91.610619, 38.00854], [-91.612386, 38.008065], [-91.613256, 38.00779], [-91.614021, 38.007521], [-91.614835, 38.007215], [-91.6154635, 38.0069303], [-91.6160942, 38.0066326], [-91.6166589, 38.0063451], [-91.6170343, 38.0061437], [-91.6179321, 38.0056147], [-91.6186627, 38.0051404], [-91.6203842, 38.0039977], [-91.6211368, 38.0035006]], [[-91.1353044, 38.2490014], [-91.1350138, 38.2493599]], [[-91.1351978, 38.2494545], [-91.135488, 38.249098]], [[-92.0623501, 37.8618101], [-92.0611931, 37.8618654]], [[-92.0613226, 37.8620909], [-92.0625044, 37.8620249]], [[-92.0625044, 37.8620249], [-92.063769, 37.861984], [-92.064845, 37.861911], [-92.065171, 37.861872], [-92.065612, 37.861813], [-92.065974, 37.861746], [-92.066442, 37.861638], [-92.066834, 37.861552], [-92.067276, 37.861417], [-92.067579, 37.861313], [-92.067918, 37.861189], [-92.068292, 37.861041], [-92.069011, 37.86071], [-92.069722, 37.860323], [-92.070098, 37.860087], [-92.070366, 37.859887], [-92.070671, 37.859666], [-92.071212, 37.859221], [-92.071473, 37.858977], [-92.071952, 37.858462], [-92.072983, 37.857379], [-92.073105, 37.857251], [-92.073254, 37.857087], [-92.073617, 37.856685], [-92.0737718, 37.8565181], [-92.073886, 37.856395], [-92.074176, 37.856114], [-92.074461, 37.855795], [-92.074747, 37.855486], [-92.075539, 37.854652], [-92.075792, 37.854377]], [[-92.075792, 37.854377], [-92.076319, 37.853828], [-92.077344, 37.852763]], [[-92.077075, 37.852614], [-92.0755471, 37.8542491]], [[-92.0755471, 37.8542491], [-92.074817, 37.854986], [-92.074791, 37.855013], [-92.074398, 37.85544], [-92.074087, 37.855785], [-92.073792, 37.856099], [-92.0735201, 37.8563774], [-92.073501, 37.856397], [-92.073304, 37.856603], [-92.073136, 37.85678], [-92.072738, 37.857213], [-92.072392, 37.85758], [-92.071741, 37.8583], [-92.071263, 37.858782], [-92.071032, 37.859008], [-92.070501, 37.859439], [-92.070226, 37.859653], [-92.069941, 37.859855], [-92.069603, 37.860076], [-92.069064, 37.86038], [-92.06878, 37.860525], [-92.068154, 37.860821], [-92.067753, 37.860975], [-92.067367, 37.861115], [-92.066923, 37.861254], [-92.066561, 37.861352], [-92.066161, 37.86146], [-92.065781, 37.86153], [-92.065343, 37.861585], [-92.064938, 37.861628], [-92.063755, 37.861711], [-92.0623501, 37.8618101]], [[-92.077344, 37.852763], [-92.077669, 37.852429], [-92.077947, 37.852132], [-92.078574, 37.85148], [-92.079128, 37.850918], [-92.07945, 37.85058], [-92.079732, 37.850262], [-92.080267, 37.849671], [-92.080536, 37.8494], [-92.080797, 37.849122], [-92.081818, 37.848063], [-92.082389, 37.847454], [-92.08267, 37.847167], [-92.083177, 37.846627], [-92.083688, 37.846049], [-92.083965, 37.845755], [-92.084182, 37.845552], [-92.084447, 37.845271], [-92.08474, 37.845003], [-92.085049, 37.844747], [-92.085397, 37.844467], [-92.085694, 37.844236], [-92.085938, 37.844065], [-92.086274, 37.843851], [-92.086364, 37.843796], [-92.086925, 37.843456], [-92.087301, 37.843261], [-92.087716, 37.843057], [-92.088175, 37.842843], [-92.088369, 37.842749], [-92.088554, 37.84266], [-92.089203, 37.842332], [-92.089839, 37.842016], [-92.09055, 37.841675], [-92.090897, 37.841492], [-92.09118, 37.841356], [-92.091476, 37.841189], [-92.091803, 37.841024], [-92.09241, 37.840667], [-92.092671, 37.840484], [-92.093035, 37.840241], [-92.093509, 37.839892], [-92.093563, 37.839852], [-92.093859, 37.839621], [-92.09408, 37.839441], [-92.094669, 37.838891], [-92.09485, 37.83871], [-92.095083, 37.838495], [-92.095106, 37.838473], [-92.095593, 37.837992], [-92.095782, 37.837799], [-92.096319, 37.837284], [-92.0965, 37.837131], [-92.096705, 37.836912], [-92.096804, 37.836817], [-92.096966, 37.83666], [-92.097408, 37.836201], [-92.097681, 37.835932], [-92.09791, 37.835714], [-92.098499, 37.835168], [-92.098708, 37.835003], [-92.098936, 37.834806], [-92.099032, 37.834729], [-92.099322, 37.834501], [-92.099709, 37.834205], [-92.100437, 37.833679], [-92.101277, 37.833096], [-92.101525, 37.832929], [-92.101818, 37.832708], [-92.10213, 37.83248], [-92.102514, 37.832222], [-92.103198, 37.831733], [-92.103534, 37.831484], [-92.103882, 37.831257], [-92.104178, 37.831027], [-92.104842, 37.830569], [-92.106322, 37.82953], [-92.106658, 37.829287], [-92.107066, 37.82901], [-92.107338, 37.82882], [-92.108163, 37.828219], [-92.108623, 37.827889], [-92.108819, 37.82776], [-92.108891, 37.827712], [-92.109111, 37.827556], [-92.109655, 37.827151], [-92.110027, 37.826906], [-92.11035, 37.82671], [-92.110969, 37.826378], [-92.111288, 37.826229], [-92.112149, 37.825874], [-92.112464, 37.825773], [-92.112762, 37.82569], [-92.113096, 37.825605], [-92.113498, 37.825523], [-92.114301, 37.825406], [-92.115218, 37.825322], [-92.115714, 37.825291], [-92.11619, 37.825272], [-92.117313, 37.825205], [-92.117762, 37.825168], [-92.118679, 37.825118], [-92.119107, 37.82509], [-92.119683, 37.825047], [-92.12135, 37.824949], [-92.121846, 37.824915], [-92.122283, 37.82489], [-92.123696, 37.82479], [-92.124267, 37.82476], [-92.124803, 37.824723], [-92.125272, 37.824698], [-92.126625, 37.824592], [-92.127157, 37.824561], [-92.127681, 37.824537], [-92.128177, 37.824503], [-92.128729, 37.824475], [-92.129197, 37.824438], [-92.129366, 37.824421], [-92.129844, 37.824373], [-92.130353, 37.824333], [-92.133353, 37.824157], [-92.135295, 37.824028], [-92.137247, 37.823912], [-92.137894, 37.823866], [-92.1386738, 37.8238165], [-92.1411045, 37.8236563], [-92.1417042, 37.8236171], [-92.1425447, 37.8235631], [-92.1431369, 37.823525], [-92.1440518, 37.8234649], [-92.1450793, 37.8233983], [-92.14642, 37.8233109], [-92.147807, 37.8232225], [-92.148671, 37.823166], [-92.149237, 37.823125], [-92.149595, 37.823111], [-92.149991, 37.823111], [-92.150439, 37.823124], [-92.15084, 37.823149], [-92.151184, 37.823176], [-92.151568, 37.823236], [-92.151984, 37.823314], [-92.15285, 37.823484], [-92.153265, 37.823591], [-92.153619, 37.823668], [-92.153717, 37.823689], [-92.154085, 37.823776], [-92.155022, 37.824022], [-92.155425, 37.824113], [-92.155919, 37.824245], [-92.156386, 37.824381], [-92.157879, 37.824747], [-92.158507, 37.824872], [-92.158839, 37.824921], [-92.159203, 37.824958], [-92.159314, 37.824967], [-92.15952, 37.824985], [-92.160598, 37.825047], [-92.160904, 37.825046], [-92.161229, 37.825023], [-92.16163, 37.825022], [-92.162054, 37.825016], [-92.162987, 37.824985], [-92.163864, 37.824922], [-92.1651243, 37.8248601], [-92.165928, 37.824814], [-92.166507, 37.824793], [-92.167506, 37.824757], [-92.168566, 37.8247], [-92.168995, 37.824681], [-92.169039, 37.824679], [-92.170162, 37.824611], [-92.171063, 37.824577], [-92.171288, 37.824574], [-92.171555, 37.82457], [-92.172023, 37.824552], [-92.172479, 37.824517], [-92.1728079, 37.8244857], [-92.172899, 37.824477], [-92.173202, 37.824422], [-92.17352, 37.82438], [-92.174231, 37.824243], [-92.174522, 37.824173], [-92.174828, 37.824071], [-92.175103, 37.823972], [-92.175445, 37.823843], [-92.176226, 37.823537], [-92.176482, 37.823406], [-92.176752, 37.823279], [-92.177036, 37.82314], [-92.177383, 37.822925], [-92.178124, 37.822476], [-92.178441, 37.822284], [-92.178599, 37.822184], [-92.179476, 37.821628], [-92.180462, 37.821027], [-92.180809, 37.820806], [-92.181416, 37.820439], [-92.181704, 37.820272], [-92.182539, 37.81973], [-92.182914, 37.819534], [-92.183221, 37.819345], [-92.18354, 37.819183], [-92.183903, 37.818972], [-92.184238, 37.818798], [-92.184641, 37.818609], [-92.185095, 37.818423], [-92.185486, 37.818268], [-92.185947, 37.818121], [-92.18646, 37.817983], [-92.187009, 37.817845], [-92.187466, 37.817741], [-92.187518, 37.81773], [-92.187943, 37.817644], [-92.188039, 37.81763], [-92.188392, 37.817578], [-92.18845, 37.817574], [-92.188833, 37.817546], [-92.189301, 37.817518], [-92.189927, 37.817522], [-92.190558, 37.817517], [-92.19157, 37.817565], [-92.191723, 37.817572], [-92.1923194, 37.817598]], [[-91.8048054, 37.940415], [-91.8065364, 37.9402302], [-91.8077806, 37.9401378], [-91.8090503, 37.9400573], [-91.809242, 37.9400515], [-91.8112207, 37.9399978], [-91.812541, 37.939985], [-91.813575, 37.939954], [-91.814402, 37.939903], [-91.81512, 37.939858], [-91.816296, 37.939759], [-91.820201, 37.939366], [-91.821, 37.939271], [-91.823837, 37.938971], [-91.827142, 37.938614], [-91.82933, 37.938384], [-91.830112, 37.938358], [-91.831321, 37.938371], [-91.831731, 37.938388], [-91.832434, 37.938417], [-91.832796, 37.938432], [-91.833721, 37.938487], [-91.834284, 37.93855], [-91.835035, 37.938671], [-91.835741, 37.938839], [-91.836505, 37.939052], [-91.837109, 37.939253], [-91.838461, 37.939759], [-91.840475, 37.940546], [-91.841366, 37.94091], [-91.843179, 37.94157], [-91.843494, 37.941684], [-91.844342, 37.942059], [-91.845896, 37.942654], [-91.846155, 37.942753], [-91.848154, 37.943539], [-91.849161, 37.943893], [-91.850371, 37.944225], [-91.851511, 37.944488], [-91.852665, 37.944683], [-91.853647, 37.944795], [-91.854789, 37.944898], [-91.85551, 37.944917], [-91.858389, 37.944945], [-91.859271, 37.944952], [-91.859338, 37.944952], [-91.859431, 37.944953], [-91.864749, 37.944994], [-91.865981, 37.945015], [-91.867221, 37.945036], [-91.86786, 37.945047], [-91.868215, 37.94505], [-91.868322, 37.945051], [-91.8689994, 37.9450573]], [[-91.8690127, 37.944864], [-91.868336, 37.944854], [-91.867444, 37.944841], [-91.86693, 37.9448615], [-91.8665293, 37.9448597], [-91.8653313, 37.9448514], [-91.8641333, 37.9448262], [-91.863476, 37.9448192], [-91.8623913, 37.9448218], [-91.859406, 37.944769], [-91.859213, 37.944768], [-91.858841, 37.944766], [-91.85615, 37.944729], [-91.855082, 37.944705], [-91.8542, 37.9446771], [-91.8538782, 37.9446466], [-91.8532476, 37.944569], [-91.852467, 37.944439], [-91.85163, 37.944293], [-91.850909, 37.944149], [-91.85013, 37.943958], [-91.849122, 37.943685], [-91.848344, 37.943426], [-91.847323, 37.943026], [-91.846662, 37.942756], [-91.845932, 37.942477], [-91.844418, 37.941898], [-91.8439, 37.941676], [-91.84324, 37.941434], [-91.841786, 37.940902], [-91.841024, 37.940586], [-91.840435, 37.940328], [-91.839154, 37.939846], [-91.837673, 37.93927], [-91.836824, 37.938987], [-91.836061, 37.93875], [-91.835153, 37.938524], [-91.834561, 37.938426], [-91.833882, 37.938339], [-91.833131, 37.938286], [-91.832448, 37.938251], [-91.831468, 37.938201], [-91.829866, 37.938083], [-91.82948, 37.938054], [-91.828469, 37.938057], [-91.8240387, 37.9382564], [-91.823446, 37.938308], [-91.82244, 37.938381], [-91.821072, 37.938537], [-91.820038, 37.938685], [-91.818777, 37.938885], [-91.8180515, 37.9389917]], [[-91.981856, 37.909051], [-91.982431, 37.908983], [-91.9835541, 37.9088255]], [[-91.9536906, 37.9386463], [-91.9563442, 37.9367738], [-91.9581813, 37.9355291], [-91.9593094, 37.9347609], [-91.9600368, 37.9342017], [-91.9607088, 37.9335453], [-91.9612574, 37.9329084], [-91.9618122, 37.9321207], [-91.9625212, 37.9310316], [-91.962876, 37.9304027], [-91.9634952, 37.9293054], [-91.9659487, 37.924861], [-91.9675891, 37.9224011], [-91.9680565, 37.9216345], [-91.9690422, 37.9202376]], [[-91.984613, 37.908409], [-91.984502, 37.908441], [-91.984362, 37.908472], [-91.9841519, 37.9085252]], [[-91.9836942, 37.9086026], [-91.98273, 37.908748], [-91.980903, 37.908975], [-91.980202, 37.90909], [-91.979382, 37.909272], [-91.978629, 37.909495], [-91.978218, 37.90964], [-91.977532, 37.909918], [-91.976757, 37.910314], [-91.976162, 37.910667], [-91.975469, 37.91115], [-91.97497, 37.911569], [-91.974455, 37.912086], [-91.973714, 37.912993], [-91.97359, 37.913152], [-91.9709347, 37.9167505], [-91.9705067, 37.9174572]], [[-91.9841519, 37.9085252], [-91.9836942, 37.9086026]], [[-91.9840935, 37.9087334], [-91.9846492, 37.9086284], [-91.985085, 37.908552], [-91.98582, 37.90837], [-91.988301, 37.907703], [-91.991312, 37.906905], [-91.991962, 37.906708], [-91.993538, 37.906169], [-91.993794, 37.90609], [-91.994372, 37.905953], [-91.994743, 37.905891], [-91.996874, 37.90567], [-91.997479, 37.905578], [-91.998277, 37.905389], [-91.998636, 37.905262], [-91.999865, 37.904664], [-92.000529, 37.904322], [-92.002022, 37.903498], [-92.00357, 37.902707], [-92.004571, 37.902151], [-92.005138, 37.901885], [-92.006077, 37.901393], [-92.008097, 37.900182], [-92.008457, 37.899935], [-92.008832, 37.899645], [-92.009193, 37.8993], [-92.009598, 37.898804], [-92.009864, 37.898426], [-92.010131, 37.897939], [-92.010386, 37.897354], [-92.010534, 37.896824], [-92.01058, 37.896488], [-92.010599, 37.896075], [-92.010598, 37.89514], [-92.010688, 37.894576], [-92.010889, 37.893893], [-92.011087, 37.89346], [-92.011311, 37.893104], [-92.012392, 37.891647], [-92.013077, 37.890707], [-92.013385, 37.890254], [-92.013653, 37.889713], [-92.013838, 37.889193], [-92.013954, 37.888683], [-92.014007, 37.887858], [-92.014041, 37.886436], [-92.014075, 37.885925], [-92.014326, 37.884623], [-92.014836, 37.882346], [-92.015169, 37.881089], [-92.015305, 37.880493], [-92.015767, 37.878465], [-92.016379, 37.875896], [-92.016548, 37.875141], [-92.016986, 37.873483], [-92.017364, 37.872428], [-92.017709, 37.871712], [-92.017846, 37.871429], [-92.018165, 37.870882], [-92.018519, 37.870362], [-92.01896, 37.869816], [-92.01954, 37.869217], [-92.0199066, 37.8688913], [-92.0204824, 37.8684556], [-92.021887, 37.867635], [-92.022771, 37.867166], [-92.022988, 37.867051], [-92.026174, 37.86529], [-92.026482, 37.865142], [-92.026882, 37.864934], [-92.027241, 37.864742], [-92.027613, 37.864572], [-92.028314, 37.864301], [-92.028757, 37.86416], [-92.029127, 37.864047], [-92.029983, 37.863834], [-92.030441, 37.86375], [-92.030894, 37.863693], [-92.031371, 37.863656], [-92.031923, 37.863623], [-92.032907, 37.863575], [-92.034813, 37.86349], [-92.035381, 37.863457], [-92.03602, 37.863427], [-92.036549, 37.863397], [-92.037373, 37.863337], [-92.03807, 37.863296], [-92.038511, 37.863262], [-92.038963, 37.863234], [-92.039607, 37.863205], [-92.040222, 37.863169], [-92.041651, 37.863105], [-92.042509, 37.863074], [-92.042878, 37.863049], [-92.043264, 37.863018], [-92.043788, 37.8629957], [-92.0442941, 37.8629811], [-92.0447601, 37.8629476], [-92.0451223, 37.8629219], [-92.0454181, 37.8629059], [-92.04567, 37.862895], [-92.0464367, 37.8628605], [-92.0473603, 37.8628062], [-92.0481807, 37.8627517], [-92.048866, 37.862728], [-92.04914, 37.862722], [-92.0499053, 37.8626745], [-92.0509018, 37.862606], [-92.0518409, 37.8625628], [-92.0531299, 37.8625125], [-92.0538027, 37.8624764], [-92.0543977, 37.8624484], [-92.0549318, 37.8624204], [-92.055315, 37.862404], [-92.0563581, 37.8623382], [-92.0573881, 37.8622772], [-92.057809, 37.862263], [-92.05819, 37.862229], [-92.058687, 37.862204], [-92.059103, 37.862198], [-92.0613226, 37.8620909]], [[-91.9835541, 37.9088255], [-91.9840935, 37.9087334]], [[-91.2863813, 38.1356028], [-91.2858577, 38.1357744]], [[-91.2864695, 38.1357764], [-91.2869492, 38.135617]], [[-91.2859586, 38.1359444], [-91.2864695, 38.1357764]], [[-91.2868562, 38.1354471], [-91.2863813, 38.1356028]], [[-91.2858577, 38.1357744], [-91.2849875, 38.1360596], [-91.2750561, 38.139345], [-91.2735378, 38.1400104], [-91.2723885, 38.1405726], [-91.2716871, 38.1409936], [-91.2702618, 38.1419311], [-91.2646184, 38.1455402], [-91.2590194, 38.1491525], [-91.2538095, 38.1524829], [-91.2486754, 38.1557901], [-91.2466838, 38.1571049], [-91.2452178, 38.158044], [-91.2445351, 38.1584412], [-91.2441701, 38.1586241], [-91.24379, 38.1587896], [-91.2434268, 38.1589255], [-91.2426313, 38.1592058], [-91.2402829, 38.1597973], [-91.2361771, 38.1608529], [-91.2275196, 38.1630353], [-91.2227111, 38.1642584], [-91.2219642, 38.1644892], [-91.2215153, 38.1646599], [-91.2210961, 38.1648556], [-91.2206025, 38.1651166], [-91.2201301, 38.165421], [-91.219762, 38.1656904], [-91.2194173, 38.1659714], [-91.2189022, 38.1664636], [-91.217066, 38.168726], [-91.2142589, 38.1720895], [-91.2135842, 38.1728934], [-91.212955, 38.1736509], [-91.2121692, 38.1745513], [-91.2118209, 38.1749341], [-91.2110641, 38.1757057], [-91.2102778, 38.1764394], [-91.2094893, 38.1771363], [-91.2086043, 38.1778416], [-91.2051444, 38.1802778], [-91.204431, 38.1807979], [-91.2001433, 38.1838394], [-91.1984269, 38.1850355], [-91.1934362, 38.1885437], [-91.1901217, 38.1909644], [-91.1882584, 38.1925381], [-91.1859647, 38.1944981], [-91.1837295, 38.1963986], [-91.1826438, 38.1973509]], [[-91.182815, 38.1974993], [-91.187676, 38.1932467], [-91.1884131, 38.1926717], [-91.1891368, 38.1920546], [-91.1906279, 38.1908133], [-91.1943321, 38.1881715], [-91.2002901, 38.1839781], [-91.2045569, 38.1809562], [-91.2053521, 38.1803992], [-91.208822, 38.1779241], [-91.2096611, 38.1772423], [-91.2104652, 38.1765395], [-91.2112382, 38.1758003], [-91.2120005, 38.1750379], [-91.2123389, 38.1746735], [-91.213139, 38.17375], [-91.2137837, 38.1729839], [-91.2144526, 38.1721799], [-91.2174336, 38.1685714], [-91.2192364, 38.1664131], [-91.2197535, 38.165953], [-91.2202386, 38.1655833], [-91.2206663, 38.1653023], [-91.2211067, 38.165063], [-91.2216387, 38.1648171], [-91.2221345, 38.1646314], [-91.2226409, 38.1644658], [-91.2234691, 38.1642438], [-91.2277916, 38.1631756], [-91.2362478, 38.1609937], [-91.2402318, 38.1600032], [-91.2428064, 38.1593284], [-91.2435481, 38.159098], [-91.2439665, 38.158921], [-91.2443071, 38.1587629], [-91.2447239, 38.1585553], [-91.2452389, 38.1582567], [-91.2468695, 38.1572257], [-91.2472193, 38.1570026], [-91.2488297, 38.1559419], [-91.2538139, 38.1527226], [-91.2539868, 38.1526109], [-91.2591755, 38.1492613], [-91.2648499, 38.1456566], [-91.2703967, 38.1420999], [-91.2719936, 38.1410196], [-91.2736549, 38.1401402], [-91.2752453, 38.1394838], [-91.2850636, 38.1362388], [-91.2859586, 38.1359444]], [[-91.1824969, 38.197773], [-91.182815, 38.1974993]], [[-91.1823102, 38.1976435], [-91.1819228, 38.1979833]], [[-91.1821163, 38.1981011], [-91.1824969, 38.197773]], [[-91.1826438, 38.1973509], [-91.1823102, 38.1976435]], [[-91.1819228, 38.1979833], [-91.181366, 38.1984982], [-91.1801293, 38.1997812], [-91.1792411, 38.200921], [-91.1751943, 38.2074265], [-91.1740622, 38.2093829], [-91.1736702, 38.2099559], [-91.1733316, 38.2104132], [-91.17283, 38.2110142], [-91.1723306, 38.2115362], [-91.1717314, 38.2121514], [-91.1712799, 38.2125632], [-91.1706331, 38.2130978], [-91.1699481, 38.2136393], [-91.1689849, 38.2143743], [-91.1580719, 38.2227724], [-91.1576374, 38.2231196], [-91.1542009, 38.2257649], [-91.1535272, 38.2263609], [-91.1530128, 38.2268158], [-91.1520833, 38.2278333], [-91.1514509, 38.2286176], [-91.1504465, 38.2298756], [-91.149438, 38.2310893], [-91.1473846, 38.2337226], [-91.1460069, 38.2354807], [-91.1444619, 38.2373738], [-91.1405858, 38.242302], [-91.1392393, 38.2440022], [-91.1360604, 38.2480507], [-91.1353044, 38.2490014]], [[-91.135488, 38.249098], [-91.1394123, 38.2440907], [-91.140679, 38.2424744], [-91.1447024, 38.2374221], [-91.1497572, 38.2310705], [-91.1506816, 38.2299017], [-91.1522772, 38.2279224], [-91.1533622, 38.2268065], [-91.1538441, 38.2263253], [-91.1546086, 38.2256873], [-91.157507, 38.2234503], [-91.1583166, 38.2228334], [-91.1693462, 38.2143867], [-91.1709037, 38.2131387], [-91.1713903, 38.2127327], [-91.1719145, 38.2122519], [-91.1725164, 38.2116508], [-91.1728776, 38.2112744], [-91.1734169, 38.2106359], [-91.1741743, 38.2095973], [-91.1745526, 38.2090268], [-91.1755272, 38.2074778], [-91.1774011, 38.2041801], [-91.1794362, 38.2010232], [-91.1803442, 38.19986], [-91.1815662, 38.1985792], [-91.1821163, 38.1981011]], [[-91.8695453, 37.9448718], [-91.8690127, 37.944864]], [[-91.8695372, 37.9450623], [-91.8700978, 37.9450675]], [[-91.8700788, 37.9448796], [-91.8695453, 37.9448718]], [[-91.940314, 37.9429103], [-91.937357, 37.943442], [-91.93534, 37.943826], [-91.935269, 37.94384], [-91.932919, 37.944265], [-91.931095, 37.944573], [-91.927616, 37.94517], [-91.926919, 37.945278], [-91.926369, 37.945342], [-91.925804, 37.945383], [-91.924978, 37.94541], [-91.923763, 37.945399], [-91.922537, 37.945378], [-91.920424, 37.94537], [-91.919324, 37.94536], [-91.915201, 37.945322], [-91.914563, 37.9453147], [-91.9137062, 37.9453058], [-91.911725, 37.945279], [-91.911377, 37.945277], [-91.910423, 37.945264], [-91.908685, 37.945239], [-91.906659, 37.9452371], [-91.905303, 37.945193], [-91.905108, 37.94519], [-91.904858, 37.945188], [-91.900379, 37.945157], [-91.897161, 37.945135], [-91.895768, 37.945112], [-91.894655, 37.945121], [-91.894097, 37.945104], [-91.893395, 37.945097], [-91.892538, 37.945116], [-91.891733, 37.945109], [-91.891587, 37.945102], [-91.89062, 37.945057], [-91.890059, 37.945054], [-91.888845, 37.945047], [-91.888182, 37.945043], [-91.884278, 37.945023], [-91.883872, 37.945021], [-91.882514, 37.945], [-91.881646, 37.944986], [-91.880567, 37.944989], [-91.87848, 37.944948], [-91.878149, 37.94496], [-91.87806, 37.944963], [-91.87781, 37.94496], [-91.874018, 37.944912], [-91.87119, 37.944896], [-91.8700788, 37.9448796]], [[-91.8689994, 37.9450573], [-91.8695372, 37.9450623]], [[-91.8700978, 37.9450675], [-91.877803, 37.945139], [-91.878074, 37.945141], [-91.882515, 37.945184], [-91.887295, 37.945229], [-91.888323, 37.945251], [-91.888585, 37.945254], [-91.889778, 37.945266], [-91.890313, 37.945251], [-91.890481, 37.945246], [-91.891588, 37.945281], [-91.891713, 37.945285], [-91.892484, 37.945292], [-91.893101, 37.945271], [-91.894994, 37.945318], [-91.900375, 37.945366], [-91.9050605, 37.9454062], [-91.9055413, 37.9454061], [-91.906199, 37.94541], [-91.906998, 37.945418], [-91.908715, 37.945435], [-91.910853, 37.945456], [-91.9121254, 37.9454751], [-91.912977, 37.9454857], [-91.918189, 37.945546], [-91.919532, 37.945544], [-91.92069, 37.945543], [-91.922137, 37.945556], [-91.923353, 37.945556], [-91.924741, 37.945591], [-91.92561, 37.945565], [-91.92632, 37.945526], [-91.926943, 37.945463], [-91.92774, 37.945344], [-91.928945, 37.945137], [-91.931484, 37.944668], [-91.932465, 37.94453], [-91.933207, 37.944382], [-91.93531, 37.944], [-91.935426, 37.94398], [-91.937469, 37.943619], [-91.9404506, 37.9431003]], [[-92.2860522, 37.7824222], [-92.2856096, 37.7824768]], [[-91.9528701, 37.9390355], [-91.9514673, 37.9399418], [-91.9504924, 37.9405569], [-91.9495112, 37.9410033], [-91.9483601, 37.9413903], [-91.9474732, 37.9416234], [-91.940314, 37.9429103]], [[-91.9533721, 37.9388711], [-91.9536906, 37.9386463]], [[-91.9529536, 37.9391664], [-91.9533721, 37.9388711]], [[-92.411867, 37.767881], [-92.407725, 37.76833], [-92.403951, 37.768737], [-92.397266, 37.769407], [-92.395755, 37.769567], [-92.395317, 37.769614], [-92.391121, 37.770061], [-92.389809, 37.770191], [-92.387137, 37.770457], [-92.384362, 37.770785], [-92.380972, 37.771185], [-92.377683, 37.7716], [-92.375653, 37.771828], [-92.373999, 37.772028], [-92.372965, 37.772142], [-92.372691, 37.772177], [-92.369488, 37.772585], [-92.367702, 37.772799], [-92.366405, 37.772971], [-92.364557, 37.773172], [-92.364451, 37.773184], [-92.36259, 37.773412], [-92.36056, 37.773685], [-92.359996, 37.773741], [-92.359201, 37.773833], [-92.358643, 37.773898], [-92.356725, 37.774156], [-92.354996, 37.774355], [-92.353342, 37.774554], [-92.351838, 37.774725], [-92.350578, 37.774897], [-92.349338, 37.775039], [-92.348605, 37.775154], [-92.347909, 37.775285], [-92.3471, 37.775474], [-92.346327, 37.775663], [-92.345613, 37.775838], [-92.344107, 37.776307], [-92.341433, 37.777082], [-92.3378, 37.77815], [-92.335446, 37.778852], [-92.334373, 37.779159], [-92.333677, 37.779334], [-92.333225, 37.779436], [-92.332661, 37.779522], [-92.332059, 37.779593], [-92.331627, 37.779635], [-92.331214, 37.779648], [-92.3302, 37.779642], [-92.329074, 37.779546], [-92.328342, 37.779467], [-92.326916, 37.779325], [-92.325922, 37.779215], [-92.323098, 37.778935], [-92.321138, 37.778725], [-92.320554, 37.778681], [-92.319738, 37.778632], [-92.3190339, 37.7786237], [-92.3188475, 37.7786237], [-92.318217, 37.778634], [-92.317188, 37.778684], [-92.316314, 37.778746], [-92.314945, 37.778901], [-92.31434, 37.778969], [-92.312846, 37.779162], [-92.312099, 37.779247], [-92.310505, 37.77945], [-92.307671, 37.779802], [-92.305472, 37.780069], [-92.303258, 37.780346], [-92.302165, 37.780476], [-92.300085, 37.78073], [-92.297308, 37.78106], [-92.297108, 37.781085], [-92.29343, 37.78154], [-92.292429, 37.781634], [-92.291696, 37.781725], [-92.2860522, 37.7824222]], [[-92.2856342, 37.782636], [-92.2860561, 37.7825845]], [[-91.9404506, 37.9431003], [-91.9420177, 37.9428218], [-91.9478186, 37.9417668], [-91.9490207, 37.941407], [-91.9500502, 37.9409938], [-91.9508639, 37.9406146], [-91.9516591, 37.9400798], [-91.9529536, 37.9391664]], [[-92.2852204, 37.7826865], [-92.2856342, 37.782636]], [[-92.2856096, 37.7824768], [-92.2851803, 37.7825298]], [[-92.2860561, 37.7825845], [-92.287929, 37.782356], [-92.291733, 37.781903], [-92.294006, 37.781633], [-92.296959, 37.781276], [-92.2978, 37.781175], [-92.300634, 37.780823], [-92.302189, 37.780652], [-92.302847, 37.780579], [-92.303806, 37.78045], [-92.305314, 37.780277], [-92.306034, 37.780195], [-92.308163, 37.779928], [-92.310955, 37.779587], [-92.312576, 37.779384], [-92.312754, 37.779363], [-92.314804, 37.779128], [-92.315988, 37.778979], [-92.317651, 37.778854], [-92.31822, 37.77883], [-92.318581, 37.778815], [-92.318974, 37.778817], [-92.319482, 37.77882], [-92.320158, 37.778847], [-92.320947, 37.778896], [-92.321509, 37.778955], [-92.323095, 37.779131], [-92.323744, 37.779203], [-92.326333, 37.779441], [-92.327365, 37.779551], [-92.32866, 37.779678], [-92.329541, 37.779772], [-92.330386, 37.779837], [-92.331174, 37.779841], [-92.331625, 37.779814], [-92.332095, 37.779772], [-92.332546, 37.779715], [-92.333111, 37.779629], [-92.333637, 37.779527], [-92.334089, 37.779425], [-92.334488, 37.779323], [-92.334955, 37.779162], [-92.335991, 37.778855], [-92.338307, 37.778152], [-92.341846, 37.777129], [-92.344519, 37.776369], [-92.346063, 37.775885], [-92.346601, 37.77575], [-92.347512, 37.775521], [-92.34898, 37.775231], [-92.350934, 37.775003], [-92.35225, 37.774832], [-92.353791, 37.774661], [-92.35537, 37.774476], [-92.357175, 37.774233], [-92.358998, 37.774019], [-92.359384, 37.773972], [-92.360408, 37.773848], [-92.361066, 37.773762], [-92.363002, 37.773549], [-92.364612, 37.773335], [-92.364938, 37.773291], [-92.366799, 37.773077], [-92.368208, 37.772921], [-92.371686, 37.772478], [-92.372486, 37.77238], [-92.373321, 37.772277], [-92.374449, 37.77215], [-92.37614, 37.771935], [-92.378076, 37.771707], [-92.381384, 37.771307], [-92.384357, 37.770971], [-92.384471, 37.770958], [-92.387499, 37.770616], [-92.389585, 37.770392], [-92.389997, 37.770354], [-92.391516, 37.770212], [-92.39356, 37.77001], [-92.395562, 37.769796], [-92.397647, 37.769573], [-92.403635, 37.768943], [-92.408109, 37.768476], [-92.411863, 37.768078]], [[-91.9532684, 37.9387766], [-91.9532419, 37.9387954], [-91.9528701, 37.9390355]], [[-91.9535962, 37.9385451], [-91.9532684, 37.9387766]], [[-91.0195479, 38.332435], [-91.0198205, 38.3317514], [-91.0203936, 38.3307821], [-91.0209438, 38.3300439], [-91.0212444, 38.3296863], [-91.0215664, 38.3293372], [-91.0234738, 38.3274341], [-91.0252611, 38.3257417], [-91.0277412, 38.3233945], [-91.0288356, 38.322542], [-91.0299616, 38.3217823], [-91.0311741, 38.3210719], [-91.0325756, 38.3203986], [-91.0340388, 38.3198395]], [[-91.0192996, 38.3330879], [-91.0195479, 38.332435]], [[-91.0190646, 38.3336907], [-91.0192996, 38.3330879]], [[-91.0190532, 38.3330091], [-91.0187779, 38.3336859]], [[-91.0193253, 38.332355], [-91.0190532, 38.3330091]], [[-91.0338971, 38.3195801], [-91.0324809, 38.3201475], [-91.0309396, 38.3209623], [-91.0298238, 38.3216385], [-91.0286546, 38.322437], [-91.0275492, 38.3232994], [-91.025045, 38.3256287], [-91.0233156, 38.3273698], [-91.0213723, 38.3292496], [-91.0210487, 38.3296072], [-91.0207412, 38.3299731], [-91.0201772, 38.3307345], [-91.019587, 38.331697], [-91.0193253, 38.332355]], [[-91.8180515, 37.9389917], [-91.8148105, 37.9394772], [-91.8136687, 37.9396403], [-91.8131984, 37.9396941], [-91.8127754, 37.9397345], [-91.8122178, 37.9397764], [-91.8118082, 37.9397943], [-91.8114269, 37.9398093], [-91.8099343, 37.9398407], [-91.809242, 37.9398631], [-91.8085555, 37.939896], [-91.8077115, 37.9399469], [-91.8068997, 37.9400127], [-91.8061126, 37.9400845], [-91.80462, 37.940258], [-91.8028505, 37.9405183], [-91.8017803, 37.940705], [-91.8009086, 37.9408742], [-91.7992966, 37.9412296], [-91.7968397, 37.9418143], [-91.7960914, 37.9420229], [-91.7957293, 37.9421434], [-91.7953216, 37.9422725], [-91.7949702, 37.9423909], [-91.7942326, 37.9426828], [-91.7936533, 37.9429282], [-91.793267, 37.943127], [-91.7930544, 37.9432522], [-91.7928514, 37.9433699], [-91.7926769, 37.943493], [-91.7924892, 37.9436241], [-91.7923148, 37.9437679], [-91.7920493, 37.9440281], [-91.7916631, 37.9444554], [-91.7912661, 37.945018], [-91.7911235, 37.9452491], [-91.7909672, 37.9455434], [-91.790795, 37.945883], [-91.7905015, 37.9466024], [-91.7903305, 37.9470219], [-91.789669, 37.9486448], [-91.7894766, 37.9490848], [-91.7892624, 37.9495792], [-91.7890571, 37.9501039], [-91.7889759, 37.9502835], [-91.7888045, 37.9507282], [-91.7886331, 37.951123], [-91.788412, 37.9516441], [-91.7882429, 37.9519962], [-91.7881346, 37.9522221], [-91.7880128, 37.9524106], [-91.787882, 37.9526312], [-91.7877151, 37.952857], [-91.7875617, 37.9530438], [-91.7874129, 37.9532412], [-91.7872482, 37.9534048], [-91.7870836, 37.9535773], [-91.7869009, 37.9537552], [-91.7867295, 37.9539188], [-91.78654, 37.9540699], [-91.7863303, 37.9542282], [-91.7861273, 37.9543829], [-91.7859084, 37.9545258], [-91.7856858, 37.9546654], [-91.7854605, 37.9547944], [-91.7852003, 37.9549318], [-91.7848536, 37.9551095], [-91.784621, 37.9552068], [-91.7842911, 37.9553464], [-91.7838673, 37.9554923], [-91.7830841, 37.9557376], [-91.7816544, 37.9561775], [-91.780418, 37.9565645], [-91.7799378, 37.9566935]], [[-91.7799378, 37.9566935], [-91.7791278, 37.9569494], [-91.7787925, 37.9570657], [-91.778468, 37.9571905], [-91.7781032, 37.9573534], [-91.7778055, 37.9574887], [-91.7775212, 37.9576346], [-91.7770545, 37.9578905], [-91.7766441, 37.9581676], [-91.7763249, 37.9583917], [-91.774839, 37.9596035], [-91.7745171, 37.9598552], [-91.7741952, 37.9600878], [-91.7738921, 37.9602739], [-91.7735408, 37.9604473], [-91.7730902, 37.9606355], [-91.7726771, 37.9607666], [-91.7723043, 37.9608554], [-91.7719234, 37.960921], [-91.7716042, 37.9609633], [-91.7712072, 37.9609908], [-91.7705286, 37.9610162]], [[-91.7705286, 37.9610162], [-91.768348, 37.9610627], [-91.7678438, 37.961086], [-91.7674361, 37.961124], [-91.7670605, 37.9611684], [-91.7666904, 37.9612361], [-91.7662988, 37.9613186], [-91.7660064, 37.9613884], [-91.7655746, 37.9615152], [-91.7652769, 37.9616168], [-91.7649389, 37.9617457], [-91.7645822, 37.9618959], [-91.7642871, 37.9620418], [-91.7639385, 37.9622173], [-91.7635666, 37.9624214], [-91.7632867, 37.9626107], [-91.762946, 37.9628813], [-91.7626778, 37.9630949], [-91.7624659, 37.9632979], [-91.7621923, 37.9635834], [-91.7619617, 37.9638372], [-91.7615406, 37.9643933], [-91.7613153, 37.9647592], [-91.7607375, 37.9658185], [-91.7602984, 37.9666316], [-91.7598646, 37.9674313], [-91.7594711, 37.9681651]], [[-91.6215971, 38.0029868], [-91.6209205, 38.0034137], [-91.6193962, 38.0044266], [-91.6186423, 38.0049259], [-91.6178829, 38.0054222], [-91.6174921, 38.0057212], [-91.6170353, 38.0059822], [-91.6168097, 38.0061113], [-91.6166767, 38.0061681], [-91.6162731, 38.0063735], [-91.614977, 38.006912], [-91.614675, 38.007039], [-91.614335, 38.007183], [-91.613312, 38.007546], [-91.61249, 38.007807], [-91.610446, 38.008369], [-91.603705, 38.01014], [-91.602498, 38.010466], [-91.602392, 38.010495], [-91.599861, 38.011141], [-91.598629, 38.01148], [-91.597246, 38.011829], [-91.595682, 38.012243], [-91.59249, 38.013087], [-91.591497, 38.013338], [-91.589713, 38.013809], [-91.588981, 38.014008], [-91.588395, 38.014168], [-91.586809, 38.0146], [-91.585978, 38.014808], [-91.585002, 38.0150909], [-91.584697, 38.0151803], [-91.584392, 38.0152867], [-91.5839822, 38.0154281], [-91.5835724, 38.0155822], [-91.5815515, 38.0163846], [-91.5806, 38.016789], [-91.5800836, 38.0170147], [-91.5789455, 38.0175094], [-91.5783158, 38.0177669], [-91.5736634, 38.0197149], [-91.5722271, 38.0203152], [-91.5705886, 38.0209929], [-91.5678981, 38.0221285], [-91.566655, 38.022635], [-91.566357, 38.0227503], [-91.566043, 38.022853], [-91.565402, 38.023048], [-91.5650935, 38.0231299], [-91.5647581, 38.0232076], [-91.5643213, 38.0232875], [-91.563847, 38.023359], [-91.562999, 38.0234407], [-91.5623577, 38.0234707], [-91.5617406, 38.0234664], [-91.559838, 38.023373], [-91.555718, 38.0231226], [-91.5547717, 38.0230695], [-91.553924, 38.023052], [-91.553106, 38.0230847], [-91.5527228, 38.0231126], [-91.552345, 38.0231575], [-91.551677, 38.0232716], [-91.550914, 38.0234447], [-91.5500333, 38.0236988], [-91.5491618, 38.0240319], [-91.5477874, 38.0245714], [-91.5472495, 38.0247861], [-91.545896, 38.025333], [-91.544525, 38.025887], [-91.5425061, 38.0267361], [-91.5420339, 38.0269238], [-91.539483, 38.0279777], [-91.5364197, 38.029215], [-91.5340501, 38.0301532], [-91.53151, 38.0312199], [-91.5308385, 38.0314776], [-91.5296923, 38.0319528], [-91.5283931, 38.032482], [-91.5271518, 38.0329812], [-91.525889, 38.033474], [-91.5248679, 38.0338926], [-91.5203825, 38.0357316], [-91.5160241, 38.0375118], [-91.5131846, 38.0386216], [-91.5121828, 38.0390457], [-91.5116497, 38.0392472], [-91.5110898, 38.0394319], [-91.5103554, 38.0396596], [-91.5095782, 38.039862], [-91.5047575, 38.0409775], [-91.5001146, 38.042019], [-91.4962476, 38.0429072], [-91.4944205, 38.0433288], [-91.4933659, 38.0435481], [-91.4923612, 38.0436984], [-91.4883708, 38.0441188], [-91.4816864, 38.0447593], [-91.475344, 38.045367], [-91.4709115, 38.0458472], [-91.4698756, 38.0460192], [-91.4686939, 38.0462703], [-91.4676607, 38.0465483], [-91.4667278, 38.0468619], [-91.460141, 38.049466], [-91.458231, 38.0502], [-91.4500352, 38.0534085], [-91.4447116, 38.0555145], [-91.4380565, 38.0581578], [-91.4318288, 38.060606], [-91.422534, 38.0642337], [-91.4213543, 38.0647566], [-91.4202115, 38.0653707], [-91.4125326, 38.0695445], [-91.4097476, 38.0710533], [-91.40312, 38.0746437], [-91.3991216, 38.0768097], [-91.3950252, 38.0790438], [-91.3908082, 38.0813313], [-91.3866447, 38.0836059], [-91.3833637, 38.085364], [-91.3769508, 38.0888318], [-91.3731857, 38.0908756], [-91.366413, 38.0945518], [-91.3607445, 38.0976285], [-91.3491774, 38.103901], [-91.3469708, 38.1050823], [-91.3454142, 38.105906], [-91.3436899, 38.1066498], [-91.3421392, 38.1071872], [-91.3408768, 38.1076403], [-91.3383176, 38.1085391]], [[-91.761135, 37.9655423], [-91.7615508, 37.9648011], [-91.7618083, 37.9643592], [-91.7619799, 37.9641033], [-91.7621022, 37.9639465], [-91.7622957, 37.9637207], [-91.7626181, 37.9633873], [-91.7628234, 37.963186], [-91.7629929, 37.9630228], [-91.7632752, 37.962794], [-91.7637202, 37.9624897], [-91.7640344, 37.9623023], [-91.7645176, 37.9620534], [-91.7648749, 37.9618899], [-91.765256, 37.9617403], [-91.7660248, 37.9614926], [-91.7664203, 37.9614046], [-91.7668222, 37.9613178], [-91.7672289, 37.9612574], [-91.7675287, 37.961221], [-91.7679326, 37.9611912], [-91.7683403, 37.9611722], [-91.7705191, 37.9611448]], [[-91.7795543, 37.9570351], [-91.7799647, 37.956887], [-91.7804394, 37.9567466], [-91.7813648, 37.956459], [-91.7822875, 37.9561798], [-91.7828534, 37.9559979], [-91.7831646, 37.9559028], [-91.7835481, 37.9557759], [-91.7838914, 37.9556701], [-91.7842267, 37.9555601], [-91.7844628, 37.955465], [-91.7847149, 37.9553635], [-91.7849402, 37.9552683], [-91.7851655, 37.9551541], [-91.7853211, 37.9550756], [-91.7853962, 37.9550378], [-91.7856354, 37.9549127], [-91.7858487, 37.9547786], [-91.7860695, 37.9546513], [-91.7862766, 37.9544974], [-91.7864777, 37.9543606], [-91.786663, 37.9542067], [-91.7868484, 37.9540621], [-91.7870377, 37.9538833], [-91.7872999, 37.9536438], [-91.7874557, 37.9534682], [-91.7876233, 37.9532723], [-91.7878421, 37.9530157], [-91.7880413, 37.9527436], [-91.7882286, 37.9524482], [-91.7883863, 37.952159], [-91.7885539, 37.9518419], [-91.7886782, 37.951548], [-91.7887984, 37.9512542], [-91.7889325, 37.9509525], [-91.7891159, 37.9504892], [-91.7892677, 37.9501269], [-91.7894531, 37.9496682], [-91.7896167, 37.9492764], [-91.7897508, 37.948953], [-91.7898829, 37.9486374], [-91.7900032, 37.9483249], [-91.7901313, 37.9480263], [-91.790224, 37.9478164], [-91.7903522, 37.9475008], [-91.7904823, 37.9472162], [-91.7905709, 37.9469896], [-91.7906519, 37.9467824], [-91.790786, 37.9464652], [-91.7909081, 37.9461796], [-91.7909949, 37.9459522], [-91.7910887, 37.9457525], [-91.7911965, 37.9455472], [-91.7913044, 37.9453623], [-91.7914076, 37.9451811], [-91.7915365, 37.9449943], [-91.7916749, 37.9447909], [-91.7918109, 37.9446004], [-91.791975, 37.9444063], [-91.7921298, 37.944238], [-91.7922986, 37.944066], [-91.7925472, 37.9438386], [-91.7927512, 37.9436759], [-91.7929927, 37.9435224], [-91.7933116, 37.9433264], [-91.7935883, 37.943171], [-91.7939798, 37.9429917], [-91.7944465, 37.9427864], [-91.7948146, 37.9426514], [-91.7951147, 37.9425516], [-91.7959753, 37.9422594], [-91.7964371, 37.9421192], [-91.7969223, 37.9419864], [-91.7989673, 37.9414994], [-91.8006051, 37.9411175], [-91.801779, 37.94089], [-91.8026976, 37.9407305], [-91.803258, 37.9406442], [-91.8041467, 37.940503], [-91.8048054, 37.940415]], [[-91.7705191, 37.9611448], [-91.7708696, 37.9611405], [-91.7712585, 37.9611278], [-91.771484, 37.9611124], [-91.7717065, 37.961094], [-91.7719398, 37.9610665], [-91.7721812, 37.9610242], [-91.7724253, 37.9609755], [-91.7726479, 37.9609269], [-91.7728303, 37.9608719], [-91.7730476, 37.9608106], [-91.7733909, 37.9606753], [-91.7736698, 37.9605526], [-91.7738791, 37.9604511], [-91.7741178, 37.96032], [-91.774327, 37.9601952], [-91.7745818, 37.9600112], [-91.7748417, 37.959797], [-91.7751367, 37.9595559], [-91.7754318, 37.9593085], [-91.7756222, 37.9591499], [-91.775818, 37.9589807], [-91.7760031, 37.9588284], [-91.7761935, 37.9586867], [-91.776392, 37.9585472], [-91.7766092, 37.958397], [-91.7768158, 37.9582574], [-91.7770277, 37.9581263], [-91.7772583, 37.957991], [-91.7774863, 37.9578662], [-91.777725, 37.9577456], [-91.7779638, 37.9576293], [-91.7782105, 37.9575194], [-91.7784492, 37.95742], [-91.7788355, 37.9572698], [-91.7790903, 37.957181], [-91.7795543, 37.9570351]], [[-92.4478264, 37.7623678], [-92.4473843, 37.7625899]], [[-92.4516667, 37.7603986], [-92.4482867, 37.7621384], [-92.4478264, 37.7623678]], [[-92.4479272, 37.762526], [-92.4484557, 37.762261], [-92.4518047, 37.7605382]], [[-92.4474635, 37.7627602], [-92.4479272, 37.762526]], [[-91.3377355, 38.1087528], [-91.3355337, 38.1095613], [-91.3348308, 38.1098408], [-91.3341493, 38.1101415], [-91.3335972, 38.1104005], [-91.3330558, 38.1106807], [-91.3304731, 38.1122004], [-91.3272504, 38.1140918], [-91.3265282, 38.1144499], [-91.3229331, 38.1160848], [-91.3194872, 38.1176237], [-91.3151062, 38.1195639], [-91.3139032, 38.1201092], [-91.3118086, 38.1211256], [-91.3111881, 38.1214582], [-91.3106215, 38.1218609], [-91.3101086, 38.1222636], [-91.309814, 38.1225454], [-91.3094363, 38.1229222], [-91.3084708, 38.1240091], [-91.3075749, 38.1250279], [-91.3067244, 38.1259854], [-91.3047691, 38.12819], [-91.3045584, 38.1284281], [-91.3043369, 38.1286536], [-91.304137, 38.1288625], [-91.3039209, 38.1290503], [-91.3036091, 38.1293234], [-91.3032651, 38.1295838], [-91.3025938, 38.1300293], [-91.3021633, 38.1302775], [-91.3017059, 38.1305045], [-91.3007724, 38.1308691], [-91.297664, 38.131888], [-91.2895, 38.1345806], [-91.2868562, 38.1354471]], [[-91.3383176, 38.1085391], [-91.3377355, 38.1087528]], [[-92.45354, 37.759649], [-92.4547444, 37.7590731], [-92.4556537, 37.7586638], [-92.4566515, 37.7583437], [-92.45766, 37.7581191], [-92.4587704, 37.7579747], [-92.460377, 37.757896], [-92.463385, 37.757881], [-92.4658224, 37.7578766], [-92.4674921, 37.7578642], [-92.4690199, 37.7578553], [-92.4714894, 37.7578302], [-92.4726012, 37.7577809], [-92.4741005, 37.7576231], [-92.475503, 37.7573956], [-92.47673, 37.757125], [-92.477534, 37.756899], [-92.478783, 37.756569], [-92.479787, 37.756271], [-92.481038, 37.75594], [-92.482184, 37.7556239], [-92.483001, 37.755384], [-92.483939, 37.7551294], [-92.4864964, 37.7544303], [-92.4871983, 37.7542476], [-92.4885903, 37.7539336], [-92.4899823, 37.7536833], [-92.491316, 37.7534973], [-92.491666, 37.753461], [-92.491944, 37.7534374], [-92.492482, 37.7533879], [-92.493573, 37.753323], [-92.494739, 37.7533071], [-92.4954983, 37.7533247], [-92.4966524, 37.7533899], [-92.498383, 37.753592], [-92.499841, 37.753852], [-92.500755, 37.754084], [-92.5017336, 37.7544099], [-92.5022999, 37.7545754], [-92.5042013, 37.7552967], [-92.5063, 37.756212], [-92.509517, 37.757487], [-92.510406, 37.757833], [-92.51259, 37.758703], [-92.514751, 37.759534], [-92.5166003, 37.7601245], [-92.5172854, 37.7603146], [-92.5179145, 37.7604646]], [[-92.5181218, 37.7603219], [-92.5175467, 37.7601939], [-92.5168387, 37.7600086], [-92.515665, 37.759653], [-92.514248, 37.759131], [-92.51312, 37.758667], [-92.511655, 37.758107], [-92.510071, 37.757469], [-92.503077, 37.7546554], [-92.501333, 37.754046], [-92.500636, 37.753874], [-92.499891, 37.753661], [-92.498718, 37.753451], [-92.4969568, 37.7532426], [-92.4960953, 37.7531728], [-92.4952337, 37.7531369], [-92.4945664, 37.7531276], [-92.4938816, 37.7531309], [-92.4930791, 37.7531656], [-92.492282, 37.75323], [-92.492019, 37.753254], [-92.490967, 37.753348], [-92.4890366, 37.753677], [-92.4873026, 37.7540389], [-92.4845114, 37.7547912], [-92.4830357, 37.7551943], [-92.479753, 37.7561067], [-92.478338, 37.756477], [-92.477379, 37.756774], [-92.476812, 37.7569108], [-92.475995, 37.757104], [-92.4749483, 37.7573164], [-92.4738577, 37.7574745], [-92.47294, 37.7575744], [-92.472027, 37.7576297], [-92.4711103, 37.7576585], [-92.4673874, 37.7576919], [-92.4655691, 37.7577044], [-92.463216, 37.757684], [-92.4607, 37.757733], [-92.459111, 37.7577696], [-92.4581482, 37.7578623], [-92.4571362, 37.7580443], [-92.4563001, 37.7582609], [-92.4553747, 37.7585769], [-92.4544358, 37.7589978], [-92.4534541, 37.7594847]], [[-91.6211368, 38.0035006], [-91.6224058, 38.0027232], [-91.6234635, 38.0020129], [-91.6250386, 38.0009599], [-91.6269604, 37.999685], [-91.6286257, 37.998583], [-91.630248, 37.997464], [-91.6322726, 37.9961493], [-91.6327665, 37.9958181], [-91.6335931, 37.9952658], [-91.6342485, 37.9948544], [-91.6347134, 37.9946002], [-91.6351891, 37.9943714], [-91.6357234, 37.9941442], [-91.6361309, 37.9939979], [-91.6365437, 37.9938602], [-91.6370562, 37.9937187], [-91.6375794, 37.9935899], [-91.640399, 37.992896], [-91.641715, 37.992577], [-91.64412, 37.992041], [-91.646755, 37.991402], [-91.648349, 37.991045], [-91.650963, 37.990424], [-91.652026, 37.990175], [-91.652394, 37.990095], [-91.654609, 37.989564], [-91.655158, 37.989441], [-91.656451, 37.98915], [-91.657862, 37.988817], [-91.66064, 37.988172], [-91.664238, 37.987319], [-91.664753, 37.987204], [-91.665687, 37.98705], [-91.666544, 37.986942], [-91.668049, 37.986719], [-91.66855, 37.986654], [-91.669386, 37.986546], [-91.670402, 37.986415], [-91.671384, 37.986268], [-91.674636, 37.98582], [-91.675479, 37.985704], [-91.678242, 37.985314], [-91.681138, 37.984926], [-91.6860437, 37.984305], [-91.689748, 37.9837838], [-91.691281, 37.9835715], [-91.693529, 37.9832598], [-91.6978947, 37.9826576], [-91.699758, 37.9824094], [-91.7006357, 37.9822954], [-91.704006, 37.9818275], [-91.7055266, 37.9816227], [-91.7064757, 37.9814888], [-91.708197, 37.981226], [-91.710873, 37.980865], [-91.712874, 37.980579], [-91.71434, 37.980392], [-91.715589, 37.980203], [-91.716739, 37.980018], [-91.717683, 37.979818], [-91.718446, 37.97963], [-91.719094, 37.979444], [-91.7213307, 37.9787147], [-91.7221471, 37.9784521], [-91.7232562, 37.9780989], [-91.7235967, 37.9779853], [-91.7246014, 37.9776698], [-91.7251914, 37.9775104], [-91.7257372, 37.9773781], [-91.7262884, 37.977267], [-91.7268164, 37.9771706], [-91.7273199, 37.9770936], [-91.728569, 37.9769194], [-91.7296611, 37.9767504], [-91.7301464, 37.9766563], [-91.732916, 37.976039], [-91.734211, 37.975789], [-91.7346914, 37.9757296], [-91.7351557, 37.9756885], [-91.73562, 37.9756601], [-91.7360698, 37.9756503], [-91.736942, 37.9756693], [-91.737889, 37.975738], [-91.738429, 37.975827], [-91.739139, 37.975962], [-91.739736, 37.976051], [-91.740491, 37.976203], [-91.741107, 37.976299], [-91.741979, 37.976452], [-91.7425, 37.97651], [-91.742813, 37.976536], [-91.743574, 37.976536], [-91.743897, 37.976525], [-91.744239, 37.976498], [-91.745078, 37.976379], [-91.747748, 37.975925], [-91.750156, 37.975515], [-91.75108, 37.975337], [-91.752518, 37.975102], [-91.752815, 37.975054], [-91.753702, 37.974853], [-91.754284, 37.974664], [-91.754725, 37.974481], [-91.755194, 37.97426], [-91.755626, 37.974002], [-91.756087, 37.973691], [-91.756395, 37.973446], [-91.75672, 37.973127], [-91.75702, 37.972792], [-91.757302, 37.97245], [-91.757585, 37.972009], [-91.75785, 37.971501], [-91.758005, 37.971226], [-91.758438, 37.970455], [-91.759057, 37.969327], [-91.759431, 37.968602], [-91.760048, 37.967496], [-91.76045, 37.966734], [-91.761135, 37.9655423]], [[-91.7594711, 37.9681651], [-91.758799, 37.9693834], [-91.7583097, 37.9702855], [-91.7580823, 37.9706829], [-91.7577836, 37.9712309], [-91.7576286, 37.9715428], [-91.757102, 37.97236], [-91.756636, 37.972904], [-91.756106, 37.973401], [-91.755788, 37.973654], [-91.755116, 37.97409], [-91.754745, 37.974249], [-91.754305, 37.974455], [-91.753875, 37.974608], [-91.753035, 37.974832], [-91.752515, 37.974909], [-91.752235, 37.974951], [-91.75113, 37.975157], [-91.749902, 37.975355], [-91.747749, 37.975733], [-91.747722, 37.975738], [-91.745398, 37.976119], [-91.744665, 37.976247], [-91.74397, 37.976322], [-91.743495, 37.976354], [-91.743048, 37.976357], [-91.742668, 37.976338], [-91.742213, 37.976288], [-91.740207, 37.975949], [-91.73944, 37.975806], [-91.737972, 37.975572], [-91.7372403, 37.9755019], [-91.73689, 37.9754759], [-91.7363591, 37.9754577], [-91.7358606, 37.9754544], [-91.7351645, 37.9754787], [-91.7346553, 37.9755166], [-91.733954, 37.975611], [-91.732725, 37.975879], [-91.7310735, 37.9762509], [-91.7301184, 37.9764624], [-91.7296006, 37.9765648], [-91.7290828, 37.9766462], [-91.7280443, 37.9767545], [-91.7274519, 37.9768146], [-91.7270617, 37.9768689], [-91.7266957, 37.9769168], [-91.7263492, 37.9769744], [-91.7260215, 37.9770373], [-91.725287, 37.9771978], [-91.7246125, 37.9774011], [-91.722212, 37.9781988], [-91.7210781, 37.9785852], [-91.719018, 37.9792665], [-91.718244, 37.979477], [-91.718012, 37.979543], [-91.71703, 37.979742], [-91.71563, 37.97996], [-91.715431, 37.979985], [-91.714031, 37.98016], [-91.711613, 37.980504], [-91.709938, 37.980719], [-91.7063526, 37.9812669], [-91.705548, 37.9813749], [-91.7035634, 37.9816435], [-91.7015888, 37.9819103], [-91.6992913, 37.9822171], [-91.696752, 37.9825648], [-91.695857, 37.9826941], [-91.693399, 37.9830116], [-91.68783, 37.9837991], [-91.6860144, 37.9840525], [-91.68426, 37.984241], [-91.682012, 37.984547], [-91.679528, 37.984897], [-91.678099, 37.985091], [-91.676823, 37.985279], [-91.675033, 37.985507], [-91.674648, 37.985558], [-91.67153, 37.985973], [-91.670587, 37.986121], [-91.669395, 37.986292], [-91.668569, 37.986411], [-91.668168, 37.986469], [-91.665863, 37.986766], [-91.665111, 37.986885], [-91.664606, 37.986984], [-91.663893, 37.987144], [-91.662719, 37.987431], [-91.661155, 37.987789], [-91.660105, 37.988048], [-91.65735, 37.988681], [-91.65526, 37.989175], [-91.655077, 37.989214], [-91.654268, 37.989389], [-91.653105, 37.989654], [-91.652121, 37.989906], [-91.651636, 37.990022], [-91.651282, 37.990106], [-91.648993, 37.990633], [-91.647552, 37.990954], [-91.646083, 37.991313], [-91.644747, 37.991613], [-91.643736, 37.991864], [-91.642546, 37.992131], [-91.637538, 37.9933555], [-91.6369758, 37.9934915], [-91.6364405, 37.9936528], [-91.6359671, 37.9938082], [-91.6354856, 37.993998], [-91.6350156, 37.9942178], [-91.6346136, 37.9944116], [-91.634239, 37.9946213], [-91.6339289, 37.9948225], [-91.6333928, 37.9951697], [-91.6323979, 37.9958207], [-91.6316195, 37.996344], [-91.630357, 37.99713], [-91.630017, 37.997361], [-91.62977, 37.997529], [-91.6289565, 37.9981148], [-91.6284781, 37.9984351], [-91.6267391, 37.9995882], [-91.6249818, 38.0007573], [-91.6232976, 38.0018862], [-91.6219362, 38.0027772], [-91.6215971, 38.0029868]]]}}]}